{"version":0.6,"generator":"Overpass API 0.7.61.5 4133829e","osm3s":{"timestamp_osm_base":"2024-03-03T04:36:44Z","timestamp_areas_base":"2024-03-03T02:58:30Z","copyright":"The data included in this document is from www.openstreetmap.org. The data is made available under ODbL."},"elements":[{"type":"node","id":616656170,"lat":35.7751001,"lon":139.5859913,"tags":{"bus":"yes","highway":"bus_stop","name":"天沼マーケット前","public_transport":"platform"}},{"type":"node","id":616656174,"lat":35.7751349,"lon":139.5859002,"tags":{"bus":"yes","highway":"bus_stop","name":"天沼マーケット前","public_transport":"platform"}},{"type":"node","id":616656179,"lat":35.7737465,"lon":139.5861148,"tags":{"bus":"yes","highway":"bus_stop","name":"都民農園","name:en":"Tomin-noen","public_transport":"platform"}},{"type":"node","id":616656184,"lat":35.7730893,"lon":139.5863535,"tags":{"bus":"yes","highway":"bus_stop","name":"都民農園","name:en":"Tomin-noen","public_transport":"platform"}},{"type":"node","id":638966204,"lat":35.7658187,"lon":139.5875365,"tags":{"bus":"yes","highway":"bus_stop","name":"大泉郵便局","name:en":"Kita Shucchoujo Mae","name:ja":"北出張所前","network":"西武バス","network:en":"Seibu Bus","network:ja":"西武バス","network:wikidata":"Q11628880","network:wikipedia":"ja:西武バス","operator":"西武バス","public_transport":"platform"}},{"type":"node","id":638966205,"lat":35.7657358,"lon":139.5876492,"tags":{"bus":"yes","highway":"bus_stop","name":"大泉郵便局","name:en":"kita Shucchoujo Mae","name:ja":"北出張所前","network":"西武バス","network:en":"Seibu Bus","network:ja":"西武バス","network:wikidata":"Q11628880","network:wikipedia":"ja:西武バス","operator":"西武バス","public_transport":"platform"}},{"type":"node","id":673353362,"lat":35.7259605,"lon":139.5913839,"tags":{"bus":"yes","highway":"bus_stop","name":"上石神井駅","network":"関東バス","network:en":"Kanto Bus","network:ja":"関東バス","network:wikidata":"Q11655856","operator":"関東バス","public_transport":"platform"}},{"type":"node","id":1513670521,"lat":35.7503812,"lon":139.5879006,"tags":{"bus":"yes","highway":"bus_stop","name":"大泉学園駅北口","network":"西武バス","network:en":"Seibu Bus","network:ja":"西武バス","network:wikidata":"Q11628880","network:wikipedia":"ja:西武バス","operator":"西武バス","public_transport":"platform","ref":"3","shelter":"yes","source":"survey;Bing"}},{"type":"node","id":1513670524,"lat":35.7495923,"lon":139.5868911,"tags":{"bus":"yes","highway":"bus_stop","name":"大泉学園駅北口","public_transport":"platform","source":"survey; Bing"}},{"type":"node","id":1802110829,"lat":35.7119564,"lon":139.5867382,"tags":{"bus":"yes","highway":"bus_stop","name":"南善福寺","name:en":"Minami-Zenpukuji","name:ja":"南善福寺","network":"関東バス","network:en":"Kanto Bus","network:ja":"関東バス","network:wikidata":"Q11655856","operator":"関東バス","public_transport":"platform","route_ref":"荻36","source":"Bing 2007"}},{"type":"node","id":2050451291,"lat":35.7546657,"lon":139.646104,"tags":{"bus":"yes","highway":"bus_stop","name":"春日町","public_transport":"platform"}},{"type":"node","id":2378257637,"lat":35.7482529,"lon":139.6447502,"tags":{"bus":"yes","highway":"bus_stop","name":"春日野","public_transport":"platform"}},{"type":"node","id":2378257638,"lat":35.7481774,"lon":139.6449614,"tags":{"bus":"yes","highway":"bus_stop","name":"春日野","public_transport":"platform"}},{"type":"node","id":2516416493,"lat":35.7647026,"lon":139.6695522,"tags":{"highway":"bus_stop","name":"北町一丁目東"}},{"type":"node","id":2516416494,"lat":35.7619353,"lon":139.6305928,"tags":{"bus":"yes","highway":"bus_stop","name":"練馬光が丘病院","name:ja":"練馬光が丘病院","name:ja_kana":"ねりまひかりがおかびょういん","public_transport":"platform"}},{"type":"node","id":2516416495,"lat":35.7659496,"lon":139.6380007,"tags":{"highway":"bus_stop","name":"田柄四丁目"}},{"type":"node","id":2516416496,"lat":35.759023,"lon":139.6295685,"tags":{"bus":"yes","highway":"bus_stop","name":"光が丘駅","note":"降車専用","public_transport":"platform"}},{"type":"node","id":2516416497,"lat":35.7664159,"lon":139.641501,"tags":{"highway":"bus_stop","name":"田柄交番"}},{"type":"node","id":2516416498,"lat":35.7683936,"lon":139.6593605,"tags":{"highway":"bus_stop","name":"北町上宿公園"}},{"type":"node","id":2516416500,"lat":35.7687381,"lon":139.6557402,"tags":{"bus":"yes","highway":"bus_stop","name":"北町三丁目東","public_transport":"platform"}},{"type":"node","id":2516416501,"lat":35.7687462,"lon":139.6510175,"tags":{"highway":"bus_stop","name":"新大宮バイパス西"}},{"type":"node","id":2516416502,"lat":35.7643037,"lon":139.6346278,"tags":{"highway":"bus_stop","name":"田柄高校北","public_transport":"platform"}},{"type":"node","id":2516416504,"lat":35.7679286,"lon":139.6617966,"tags":{"bus":"yes","highway":"bus_stop","name":"東武練馬駅入口","public_transport":"platform"}},{"type":"node","id":2516416505,"lat":35.7677518,"lon":139.6508009,"tags":{"bus":"yes","highway":"bus_stop","name":"北町三丁目","name:en":"Kitamachi-sanchome","public_transport":"platform"}},{"type":"node","id":2516416506,"lat":35.7622416,"lon":139.6302302,"tags":{"bus":"yes","highway":"bus_stop","name":"練馬光が丘病院","name:ja":"練馬光が丘病院","name:ja_kana":"ねりまひかりがおかびょういん","public_transport":"platform"}},{"type":"node","id":2516416507,"lat":35.7669008,"lon":139.6455041,"tags":{"highway":"bus_stop","name":"練馬第七出張所"}},{"type":"node","id":2516416508,"lat":35.7674219,"lon":139.6632879,"tags":{"bus":"yes","highway":"bus_stop","name":"北町二丁目東","public_transport":"platform"}},{"type":"node","id":2516416509,"lat":35.7643233,"lon":139.6349423,"tags":{"bench":"no","highway":"bus_stop","name":"田柄高校北","public_transport":"platform","shelter":"no"}},{"type":"node","id":2516416510,"lat":35.7631317,"lon":139.6678474,"tags":{"highway":"bus_stop","name":"北町一丁目","name:en":"Kitamachi-itchome","public_transport":"platform"}},{"type":"node","id":2516416511,"lat":35.7664416,"lon":139.6410999,"tags":{"highway":"bus_stop","name":"田柄交番"}},{"type":"node","id":2516416512,"lat":35.7590331,"lon":139.6300342,"tags":{"bus":"yes","highway":"bus_stop","local_ref":"2","name":"光が丘駅","operator":"国際興業グループ","public_transport":"platform"}},{"type":"node","id":2516416513,"lat":35.7649919,"lon":139.6611193,"tags":{"highway":"bus_stop","name":"自衛隊前","name:en":"Jieitaimae"}},{"type":"node","id":2516416514,"lat":35.7590476,"lon":139.6298534,"tags":{"bus":"yes","highway":"bus_stop","local_ref":"3","name":"光が丘駅","network":"西武バス","network:en":"Seibu Bus","network:ja":"西武バス","network:wikidata":"Q11628880","operator":"西武バス","public_transport":"platform"}},{"type":"node","id":2516416515,"lat":35.7685178,"lon":139.6492646,"tags":{"highway":"bus_stop","name":"北町三丁目西"}},{"type":"node","id":2516416516,"lat":35.7637482,"lon":139.6320361,"tags":{"highway":"bus_stop","name":"光が丘福祉園","public_transport":"platform"}},{"type":"node","id":2516416517,"lat":35.7661972,"lon":139.6386885,"tags":{"highway":"bus_stop","name":"田柄四丁目"}},{"type":"node","id":2516416518,"lat":35.7658979,"lon":139.6577982,"tags":{"highway":"bus_stop","name":"北町二丁目","name:en":"Kitamachi-nichome"}},{"type":"node","id":2516416519,"lat":35.7636218,"lon":139.666097,"tags":{"highway":"bus_stop","name":"練馬北町車庫","name:en":"Nerima Kitamachi-shako","public_transport":"platform"}},{"type":"node","id":2516416520,"lat":35.7620201,"lon":139.6304087,"tags":{"bus":"yes","highway":"bus_stop","name":"練馬光が丘病院","name:ja":"練馬光が丘病院","name:ja_kana":"ねりまひかりがおかびょういん","public_transport":"platform"}},{"type":"node","id":2516416521,"lat":35.766806,"lon":139.6445761,"tags":{"highway":"bus_stop","name":"練馬第七出張所"}},{"type":"node","id":2516416522,"lat":35.7638506,"lon":139.6320152,"tags":{"highway":"bus_stop","name":"光が丘福祉園","public_transport":"platform"}},{"type":"node","id":2516416523,"lat":35.7687005,"lon":139.6535173,"tags":{"highway":"bus_stop","name":"北町消防出張所"}},{"type":"node","id":2516416526,"lat":35.7653137,"lon":139.6637029,"tags":{"highway":"bus_stop","name":"北町小学校","name:en":"Kitamachi-shogakko","public_transport":"platform"}},{"type":"node","id":2517057322,"lat":35.7500752,"lon":139.6441237,"tags":{"bus":"yes","highway":"bus_stop","name":"春日町三丁目","public_transport":"platform"}},{"type":"node","id":2517057323,"lat":35.7508572,"lon":139.641782,"tags":{"bus":"yes","highway":"bus_stop","name":"練馬春日町駅東","public_transport":"platform"}},{"type":"node","id":2517057325,"lat":35.7530155,"lon":139.635863,"tags":{"bus":"yes","highway":"bus_stop","name":"練馬小学校","public_transport":"platform"}},{"type":"node","id":2517057326,"lat":35.7496306,"lon":139.6510035,"tags":{"bus":"yes","highway":"bus_stop","name":"早宮小学校入口","public_transport":"platform"}},{"type":"node","id":2517057327,"lat":35.7501138,"lon":139.6443012,"tags":{"bus":"yes","highway":"bus_stop","name":"春日町三丁目","public_transport":"platform"}},{"type":"node","id":2517057328,"lat":35.7530917,"lon":139.635969,"tags":{"bus":"yes","highway":"bus_stop","name":"練馬小学校","public_transport":"platform"}},{"type":"node","id":2517057330,"lat":35.7536783,"lon":139.6341116,"tags":{"bus":"yes","highway":"bus_stop","name":"春日町六丁目","public_transport":"platform"}},{"type":"node","id":2517057333,"lat":35.7579908,"lon":139.631888,"tags":{"highway":"bus_stop","name":"光が丘二丁目","public_transport":"platform"}},{"type":"node","id":2517057336,"lat":35.7485166,"lon":139.6490697,"tags":{"bus":"yes","highway":"bus_stop","name":"早宮四丁目","public_transport":"platform"}},{"type":"node","id":2517057337,"lat":35.7510536,"lon":139.6414978,"tags":{"bus":"yes","highway":"bus_stop","name":"練馬春日町駅東","public_transport":"platform"}},{"type":"node","id":2517057338,"lat":35.7600482,"lon":139.6304416,"tags":{"bus":"yes","highway":"bus_stop","image":"http://storage4.openstreetcam.org/files/photo/2017/7/1/lth/476358_dd783_21.jpg","name":"あかね雲公園","pole":"yes","public_transport":"platform","shelter":"no","survey:date":"2017-07-01"}},{"type":"node","id":2517057339,"lat":35.75179,"lon":139.6541014,"tags":{"bus":"yes","highway":"bus_stop","name":"練馬工業高校入口","public_transport":"platform"}},{"type":"node","id":2517057340,"lat":35.7523281,"lon":139.638027,"tags":{"bus":"yes","highway":"bus_stop","name":"春日町図書館","public_transport":"platform"}},{"type":"node","id":2517057341,"lat":35.7561238,"lon":139.6321032,"tags":{"highway":"bus_stop","name":"光が丘三丁目","public_transport":"platform"}},{"type":"node","id":2517057342,"lat":35.7494228,"lon":139.6464886,"tags":{"bus":"yes","highway":"bus_stop","name":"春日町一丁目西","public_transport":"platform"}},{"type":"node","id":2517057343,"lat":35.751772,"lon":139.6539364,"tags":{"bus":"yes","highway":"bus_stop","name":"練馬工業高校入口","public_transport":"platform"}},{"type":"node","id":2517057344,"lat":35.7535662,"lon":139.6335563,"tags":{"bus":"yes","highway":"bus_stop","name":"春日町六丁目","public_transport":"platform"}},{"type":"node","id":2517057349,"lat":35.760256,"lon":139.6305034,"tags":{"bus":"yes","highway":"bus_stop","name":"あかね雲公園","public_transport":"platform"}},{"type":"node","id":2517057350,"lat":35.755171,"lon":139.6320844,"tags":{"bus":"yes","highway":"bus_stop","name":"光が丘三丁目","public_transport":"platform"}},{"type":"node","id":2517057351,"lat":35.7522427,"lon":139.6379418,"tags":{"bus":"yes","highway":"bus_stop","name":"春日町図書館","public_transport":"platform"}},{"type":"node","id":2517057352,"lat":35.7531826,"lon":139.6565864,"tags":{"bus":"yes","highway":"bus_stop","name":"はやいち公園","public_transport":"platform"}},{"type":"node","id":2517057354,"lat":35.7541163,"lon":139.658043,"tags":{"bus":"yes","highway":"bus_stop","name":"開進第一小学校","public_transport":"platform"}},{"type":"node","id":2517057355,"lat":35.748638,"lon":139.6489872,"tags":{"bus":"yes","highway":"bus_stop","name":"早宮四丁目","public_transport":"platform"}},{"type":"node","id":2517057356,"lat":35.7492252,"lon":139.6468193,"tags":{"bus":"yes","highway":"bus_stop","name":"春日町一丁目西","public_transport":"platform"}},{"type":"node","id":2517057357,"lat":35.7492148,"lon":139.6505548,"tags":{"bus":"yes","highway":"bus_stop","name":"早宮小学校入口","public_transport":"platform"}},{"type":"node","id":2517161941,"lat":35.7586939,"lon":139.6666528,"tags":{"highway":"bus_stop","name":"仲町小学校"}},{"type":"node","id":2517161943,"lat":35.7544804,"lon":139.6702409,"tags":{"highway":"bus_stop","name":"城北中央公園","name:ja_kana":"じょうほくちゅうおうこうえん"}},{"type":"node","id":2517161944,"lat":35.7564013,"lon":139.6681153,"tags":{"highway":"bus_stop","name":"氷川台福祉園","name:ja_kana":"ひかわだいふくしえん"}},{"type":"node","id":2517161946,"lat":35.7537839,"lon":139.6599853,"tags":{"highway":"bus_stop","name":"早宮一丁目"}},{"type":"node","id":2517161947,"lat":35.7612747,"lon":139.6642623,"tags":{"highway":"bus_stop","name":"錦団地","operator":"国際興業グループ","public_transport":"platform"}},{"type":"node","id":2517161949,"lat":35.7509922,"lon":139.6681709,"tags":{"highway":"bus_stop","name":"氷川台三丁目公園","name:en":"Hikawadai-sanchome-koen","name:ja_kana":"ひかわだいさんちょうめこうえん"}},{"type":"node","id":2517161952,"lat":35.7512251,"lon":139.670033,"tags":{"highway":"bus_stop","name":"羽根木橋西"}},{"type":"node","id":2517161953,"lat":35.7563284,"lon":139.667776,"tags":{"highway":"bus_stop","name":"氷川台福祉園","name:ja_kana":"ひかわだいふくしえん"}},{"type":"node","id":2517161954,"lat":35.7527238,"lon":139.6611856,"tags":{"highway":"bus_stop","name":"開進第一中学校入口"}},{"type":"node","id":2517161957,"lat":35.7513617,"lon":139.66839,"tags":{"addr:neighbourhood":"三丁目","addr:neighbourhood:ja":"三丁目","addr:quarter":"氷川台","addr:quarter:ja":"氷川台","bus":"yes","highway":"bus_stop","name":"氷川台三丁目公園","name:en":"Hikawadai-sanchome-koen","name:ja_kana":"ひかわだいさんちょうめこうえん","name:zh":"氷川台三丁目公園","public_transport":"platform"}},{"type":"node","id":2517161959,"lat":35.7494886,"lon":139.6659386,"tags":{"highway":"bus_stop","name":"氷川台駅"}},{"type":"node","id":2517161963,"lat":35.7503854,"lon":139.6640919,"tags":{"highway":"bus_stop","name":"氷川台駅西"}},{"type":"node","id":2517161964,"lat":35.7612241,"lon":139.6645137,"tags":{"highway":"bus_stop","name":"錦団地","operator":"国際興業グループ","public_transport":"platform"}},{"type":"node","id":2517161965,"lat":35.7496371,"lon":139.6657634,"tags":{"highway":"bus_stop","name":"氷川台駅"}},{"type":"node","id":2517161967,"lat":35.7539427,"lon":139.6703455,"tags":{"highway":"bus_stop","name":"城北中央公園","name:ja_kana":"じょうほくちゅうおうこうえん"}},{"type":"node","id":2517161974,"lat":35.7583984,"lon":139.6667674,"tags":{"highway":"bus_stop","name":"仲町小学校"}},{"type":"node","id":2517161975,"lat":35.7507898,"lon":139.6637149,"tags":{"highway":"bus_stop","name":"氷川台駅西"}},{"type":"node","id":2517161976,"lat":35.7525372,"lon":139.6615385,"tags":{"highway":"bus_stop","name":"開進第一中学校入口"}},{"type":"node","id":2517161980,"lat":35.7646422,"lon":139.6654136,"tags":{"highway":"bus_stop","name":"練馬北町車庫","name:ja_kana":"ねりまきたまちしゃこ","public_transport":"platform"}},{"type":"node","id":2517161981,"lat":35.763554,"lon":139.6642193,"tags":{"highway":"bus_stop","name":"練馬北町車庫","name:en":"Nerima-Kitamachi-shako","name:ja_kana":"ねりまきたまちしゃこ","public_transport":"platform"}},{"type":"node","id":2517161984,"lat":35.7539346,"lon":139.6596817,"tags":{"highway":"bus_stop","name":"早宮一丁目"}},{"type":"node","id":2618327426,"lat":35.7583821,"lon":139.6287915,"tags":{"highway":"bus_stop","name":"光が丘IMA","public_transport":"platform"}},{"type":"node","id":2618327429,"lat":35.7586603,"lon":139.6288508,"tags":{"highway":"bus_stop","name":"光が丘IMA","public_transport":"platform"}},{"type":"node","id":2618327433,"lat":35.7583583,"lon":139.6259932,"tags":{"highway":"bus_stop","name":"光が丘団地","name:ja":"光が丘団地","name:ja_kana":"ひかりがおかだんち","name:ja_rm":"Hikarigaoka danchi","public_transport":"platform"}},{"type":"node","id":2618327437,"lat":35.7586491,"lon":139.6260491,"tags":{"highway":"bus_stop","name":"光が丘団地","name:ja":"光が丘団地","name:ja_kana":"ひかりがおかだんち","name:ja_rm":"Hikarigaoka danchi","public_transport":"platform"}},{"type":"node","id":2618327443,"lat":35.7592495,"lon":139.625305,"tags":{"highway":"bus_stop","name":"光が丘団地","name:ja":"光が丘団地","name:ja_kana":"ひかりがおかだんち","name:ja_rm":"Hikarigaoka danchi","public_transport":"platform"}},{"type":"node","id":2618327450,"lat":35.7593443,"lon":139.6254303,"tags":{"highway":"bus_stop","name":"光が丘団地","name:ja":"光が丘団地","name:ja_kana":"ひかりがおかだんち","name:ja_rm":"Hikarigaoka danchi","public_transport":"platform"}},{"type":"node","id":2618327454,"lat":35.7589492,"lon":139.6301833,"tags":{"bus":"yes","highway":"bus_stop","local_ref":"1","name":"光が丘駅","operator":"国際興業グループ;西武バス","public_transport":"platform"}},{"type":"node","id":2618327456,"lat":35.7663706,"lon":139.6253437,"tags":{"highway":"bus_stop","name":"光丘高校","operator":"西武バス","public_transport":"platform"}},{"type":"node","id":2618327459,"lat":35.7666876,"lon":139.6240786,"tags":{"highway":"bus_stop","name":"光丘高校角","public_transport":"platform"}},{"type":"node","id":2618327462,"lat":35.7667811,"lon":139.6244371,"tags":{"highway":"bus_stop","name":"光丘高校角","public_transport":"platform"}},{"type":"node","id":2618327465,"lat":35.7664535,"lon":139.6170683,"tags":{"highway":"bus_stop","name":"土支田一丁目","name:en":"Doshita-itchome","public_transport":"platform"}},{"type":"node","id":2618327469,"lat":35.7665681,"lon":139.6173338,"tags":{"highway":"bus_stop","name":"土支田一丁目","name:en":"Doshita-itchome","public_transport":"platform"}},{"type":"node","id":2618327470,"lat":35.7642192,"lon":139.6106123,"tags":{"bus":"yes","highway":"bus_stop","name":"土支田二丁目","public_transport":"platform"}},{"type":"node","id":2618327471,"lat":35.7640677,"lon":139.6103757,"tags":{"highway":"bus_stop","name":"土支田二丁目","public_transport":"platform"}},{"type":"node","id":2618327472,"lat":35.7656266,"lon":139.6145047,"tags":{"highway":"bus_stop","name":"土支田八幡","note":"実際には土支田八幡と同じポール","public_transport":"platform"}},{"type":"node","id":2618327473,"lat":35.76567,"lon":139.6144197,"tags":{"highway":"bus_stop","name":"土支田八幡","note":"実際には土支田八幡\"前\"と同じポール","public_transport":"platform"}},{"type":"node","id":2618327474,"lat":35.762329,"lon":139.6120764,"tags":{"bus":"yes","highway":"bus_stop","name":"土支田地蔵","public_transport":"platform"}},{"type":"node","id":2618327475,"lat":35.7614751,"lon":139.6143043,"tags":{"bus":"yes","highway":"bus_stop","name":"土支田幼稚園西","public_transport":"platform"}},{"type":"node","id":2618327477,"lat":35.7604453,"lon":139.6169213,"tags":{"bus":"yes","highway":"bus_stop","name":"憩いの森入口","public_transport":"platform"}},{"type":"node","id":2618327480,"lat":35.7666577,"lon":139.6213953,"tags":{"highway":"bus_stop","name":"旭町南","public_transport":"platform"}},{"type":"node","id":2618327483,"lat":35.7667016,"lon":139.6209459,"tags":{"highway":"bus_stop","name":"旭町南","public_transport":"platform"}},{"type":"node","id":2618327486,"lat":35.7634712,"lon":139.6253959,"tags":{"highway":"bus_stop","name":"旭町南地区区民館","public_transport":"platform"}},{"type":"node","id":2618327490,"lat":35.7639954,"lon":139.6258486,"tags":{"highway":"bus_stop","name":"旭町南地区区民館","public_transport":"platform"}},{"type":"node","id":2618327491,"lat":35.7645984,"lon":139.6252394,"tags":{"highway":"bus_stop","name":"旭町南地区区民館","public_transport":"platform","shelter":"yes"}},{"type":"node","id":2618327492,"lat":35.7624325,"lon":139.6289022,"tags":{"bus":"yes","highway":"bus_stop","name":"練馬光が丘病院","name:ja":"練馬光が丘病院","name:ja_kana":"ねりまひかりがおかびょういん","public_transport":"platform"}},{"type":"node","id":2618327493,"lat":35.7596302,"lon":139.619052,"tags":{"bus":"yes","highway":"bus_stop","name":"高松六丁目","name:en":"Takamatsu-rokuchome","public_transport":"platform"}},{"type":"node","id":2632410203,"lat":35.7617676,"lon":139.660436,"tags":{"highway":"bus_stop","image":"http://storage2.openstreetcam.org/files/photo/2016/10/2/lth/23786_6c946_57f0c4011fd00.jpg","name":"平和台二丁目","name:en":"Heiwadai-nichome","pole":"yes","public_transport":"platform","shelter":"no","survey:date":"2016-10-02"}},{"type":"node","id":2632410209,"lat":35.7617718,"lon":139.6600186,"tags":{"highway":"bus_stop","image":"https://storage5.openstreetcam.org/files/photo/2017/8/6/lth/515075_d2988_17.jpg","name":"平和台二丁目","name:en":"Heiwadai-nichome","public_transport":"platform","shelter":"yes","survey:date":"2017-08-06"}},{"type":"node","id":2632410214,"lat":35.7594255,"lon":139.6556261,"tags":{"highway":"bus_stop","image":"http://storage6.openstreetcam.org/files/photo/2017/9/17/lth/730569_3569b_41.jpg","name":"平和台郵便局","pole":"yes","public_transport":"platform","shelter":"no","survey:date":"2017-09-17"}},{"type":"node","id":2632410219,"lat":35.7597954,"lon":139.6559577,"tags":{"highway":"bus_stop","name":"平和台郵便局","public_transport":"platform"}},{"type":"node","id":2632410224,"lat":35.7572729,"lon":139.6548494,"tags":{"bench":"yes","bin":"no","bus":"yes","highway":"bus_stop","name":"平和台駅","operator":"国際興業グループ","public_transport":"platform","shelter":"no","tactile_paving":"no"}},{"type":"node","id":2632410229,"lat":35.7578106,"lon":139.6525262,"tags":{"bus":"yes","highway":"bus_stop","image":"http://storage5.openstreetcam.org/files/photo/2017/8/5/lth/514327_0b6b3_14.jpg","name":"平和台駅","operator":"国際興業グループ","pole":"yes","public_transport":"platform","shelter":"no","survey:date":"2017-08-05"}},{"type":"node","id":2632410235,"lat":35.7578915,"lon":139.6544752,"tags":{"bus":"yes","highway":"bus_stop","name":"平和台駅","operator":"国際興業グループ","public_transport":"platform"}},{"type":"node","id":2632410239,"lat":35.7589404,"lon":139.6542902,"tags":{"bus":"yes","highway":"bus_stop","name":"平和台駅","operator":"国際興業グループ","public_transport":"platform"}},{"type":"node","id":2632410244,"lat":35.7586049,"lon":139.6526107,"tags":{"bus":"yes","highway":"bus_stop","name":"平和台駅","operator":"国際興業グループ","public_transport":"platform"}},{"type":"node","id":2632410248,"lat":35.7542787,"lon":139.6459761,"tags":{"bus":"yes","highway":"bus_stop","name":"春日町","public_transport":"platform"}},{"type":"node","id":2632410254,"lat":35.7470466,"lon":139.6479515,"tags":{"bus":"yes","highway":"bus_stop","name":"春日町一丁目","public_transport":"platform"}},{"type":"node","id":2632410260,"lat":35.7472415,"lon":139.6478245,"tags":{"bus":"yes","highway":"bus_stop","name":"春日町一丁目","public_transport":"platform"}},{"type":"node","id":2632410266,"lat":35.756433,"lon":139.6499081,"tags":{"bus":"yes","highway":"bus_stop","image":"http://storage8.openstreetcam.org/files/photo/2018/7/2/lth/1259377_9_15a5a_19.jpg","name":"東中学校入口","pole":"yes","public_transport":"platform","shelter":"no","survey:date":"2018-07-02"}},{"type":"node","id":2632410270,"lat":35.7565529,"lon":139.6497597,"tags":{"bus":"yes","highway":"bus_stop","name":"東中学校入口","public_transport":"platform"}},{"type":"node","id":2632410275,"lat":35.7382537,"lon":139.6504335,"tags":{"highway":"bus_stop","name":"練馬一丁目","public_transport":"platform"}},{"type":"node","id":2632410280,"lat":35.7394104,"lon":139.6490825,"tags":{"bench":"no","highway":"bus_stop","name":"練馬一丁目","public_transport":"platform","shelter":"no"}},{"type":"node","id":2632410287,"lat":35.7370047,"lon":139.6515207,"tags":{"bus":"yes","highway":"bus_stop","name":"練馬区役所入口","name:ja":"練馬区役所入口","public_transport":"platform"}},{"type":"node","id":2632410290,"lat":35.737124,"lon":139.6518584,"tags":{"bus":"yes","highway":"bus_stop","name":"練馬区役所入口","name:ja":"練馬区役所入口","public_transport":"platform"}},{"type":"node","id":2632410292,"lat":35.7502539,"lon":139.6401206,"tags":{"bus":"yes","highway":"bus_stop","name":"練馬春日町駅","public_transport":"platform"}},{"type":"node","id":2632410296,"lat":35.7506386,"lon":139.6398458,"tags":{"bus":"yes","highway":"bus_stop","name":"練馬春日町駅","public_transport":"platform"}},{"type":"node","id":2632410298,"lat":35.7373435,"lon":139.6541123,"tags":{"bus":"yes","highway":"bus_stop","name":"練馬駅（南口降車停留所）","public_transport":"platform"}},{"type":"node","id":2632410303,"lat":35.7381069,"lon":139.6539743,"tags":{"bus":"yes","highway":"bus_stop","local_ref":"5","name":"練馬駅","public_transport":"platform","ref":"5","wheelchair":"yes"}},{"type":"node","id":2632410308,"lat":35.7381286,"lon":139.654186,"tags":{"bus":"yes","highway":"bus_stop","local_ref":"6","name":"練馬駅","public_transport":"platform","ref":"6","wheelchair":"yes"}},{"type":"node","id":2632410313,"lat":35.7382777,"lon":139.6537276,"tags":{"bus":"yes","highway":"bus_stop","local_ref":"4","name":"練馬駅北口","public_transport":"platform","ref":"4","wheelchair":"yes"}},{"type":"node","id":2632410319,"lat":35.7384364,"lon":139.653701,"tags":{"bus":"yes","highway":"bus_stop","local_ref":"3","name":"練馬駅北口","public_transport":"platform","ref":"3","wheelchair":"yes"}},{"type":"node","id":2632410324,"lat":35.7385782,"lon":139.6539496,"tags":{"bus":"yes","highway":"bus_stop","local_ref":"2","name":"練馬駅","public_transport":"platform","ref":"2","wheelchair":"yes"}},{"type":"node","id":2632410330,"lat":35.7385903,"lon":139.6541145,"tags":{"bus":"yes","highway":"bus_stop","local_ref":"1","name":"練馬駅","public_transport":"platform","ref":"1","wheelchair":"yes"}},{"type":"node","id":2632410335,"lat":35.7422451,"lon":139.6490858,"tags":{"highway":"bus_stop","name":"豊島園","public_transport":"platform"}},{"type":"node","id":2632410342,"lat":35.7423246,"lon":139.6491774,"tags":{"bus":"yes","highway":"bus_stop","name":"豊島園","public_transport":"platform"}},{"type":"node","id":2632410345,"lat":35.7486324,"lon":139.6426986,"tags":{"highway":"bus_stop","name":"農協前","public_transport":"platform"}},{"type":"node","id":2632410350,"lat":35.7488848,"lon":139.6419911,"tags":{"highway":"bus_stop","name":"農協前","public_transport":"platform"}},{"type":"node","id":2680826070,"lat":35.7695436,"lon":139.6449506,"tags":{"bus":"yes","highway":"bus_stop","name":"下赤塚;下赤塚駅","operator":"国際興業グループ;西武バス","public_transport":"platform","source":"Bing,2007-03"}},{"type":"node","id":2680826072,"lat":35.7696366,"lon":139.6444341,"tags":{"bus":"yes","highway":"bus_stop","name":"下赤塚駅;下赤塚","operator":"西武バス;国際興業グループ","public_transport":"platform"}},{"type":"node","id":2681838765,"lat":35.7700462,"lon":139.6285341,"tags":{"bus":"yes","highway":"bus_stop","name":"光が丘公園北","network":"西武バス","network:en":"Seibu Bus","network:ja":"西武バス","network:wikidata":"Q11628880","operator":"西武バス","public_transport":"platform"}},{"type":"node","id":2681838766,"lat":35.7703349,"lon":139.6297446,"tags":{"bus":"yes","highway":"bus_stop","name":"光が丘公園北","network":"西武バス","network:en":"Seibu Bus","network:ja":"西武バス","network:wikidata":"Q11628880","operator":"西武バス","public_transport":"platform"}},{"type":"node","id":2681838767,"lat":35.7605707,"lon":139.6252821,"tags":{"bus":"yes","highway":"bus_stop","name":"光が丘六丁目","network":"西武バス","network:en":"Seibu Bus","network:ja":"西武バス","network:wikidata":"Q11628880","operator":"西武バス","public_transport":"platform"}},{"type":"node","id":2681838768,"lat":35.7613651,"lon":139.6254225,"tags":{"bus":"yes","highway":"bus_stop","name":"光が丘六丁目","network":"西武バス","network:en":"Seibu Bus","network:ja":"西武バス","network:wikidata":"Q11628880","operator":"西武バス","public_transport":"platform"}},{"type":"node","id":2681838769,"lat":35.767336,"lon":139.6251888,"tags":{"highway":"bus_stop","name":"光丘高校","operator":"西武バス","public_transport":"platform"}},{"type":"node","id":2681838770,"lat":35.765628,"lon":139.6145073,"tags":{"highway":"bus_stop","name":"土支田八幡前","note":"実際には土支田八幡\"前\"と同じポール","public_transport":"platform"}},{"type":"node","id":2681838771,"lat":35.7656686,"lon":139.6144168,"tags":{"highway":"bus_stop","name":"土支田八幡前","note":"実際には土支田八幡と同じポール","public_transport":"platform"}},{"type":"node","id":2681838772,"lat":35.7591368,"lon":139.6619134,"tags":{"bus":"yes","highway":"bus_stop","name":"平和台一丁目","operator":"国際興業グループ","public_transport":"platform"}},{"type":"node","id":2681838773,"lat":35.7594849,"lon":139.6625967,"tags":{"bus":"yes","highway":"bus_stop","name":"平和台一丁目","operator":"国際興業グループ","public_transport":"platform"}},{"type":"node","id":2681838774,"lat":35.757618,"lon":139.6595587,"tags":{"bus":"yes","highway":"bus_stop","name":"平和台四丁目","operator":"国際興業グループ","public_transport":"platform"}},{"type":"node","id":2681838775,"lat":35.7576466,"lon":139.6597376,"tags":{"bus":"yes","highway":"bus_stop","name":"平和台四丁目","operator":"国際興業グループ","public_transport":"platform"}},{"type":"node","id":2681838776,"lat":35.7579604,"lon":139.6611233,"tags":{"bus":"yes","highway":"bus_stop","name":"平和台四丁目","public_transport":"platform"}},{"type":"node","id":2681838777,"lat":35.7580867,"lon":139.6610384,"tags":{"bus":"yes","highway":"bus_stop","name":"平和台四丁目","public_transport":"platform"}},{"type":"node","id":2681838778,"lat":35.7699307,"lon":139.6272572,"tags":{"bus":"yes","highway":"bus_stop","name":"旭町二丁目","network":"西武バス","network:en":"Seibu Bus","network:ja":"西武バス","network:wikidata":"Q11628880","operator":"西武バス","public_transport":"platform"}},{"type":"node","id":2681838779,"lat":35.7700417,"lon":139.6271339,"tags":{"bus":"yes","highway":"bus_stop","name":"旭町二丁目","network":"西武バス","network:en":"Seibu Bus","network:ja":"西武バス","network:wikidata":"Q11628880","operator":"西武バス","public_transport":"platform"}},{"type":"node","id":2681838780,"lat":35.7717294,"lon":139.630915,"tags":{"bus":"yes","highway":"bus_stop","name":"旭町都営住宅前","network":"西武バス","network:en":"Seibu Bus","network:ja":"西武バス","network:wikidata":"Q11628880","operator":"西武バス","public_transport":"platform"}},{"type":"node","id":2681838782,"lat":35.7561423,"lon":139.6566113,"tags":{"bus":"yes","highway":"bus_stop","name":"練馬工業高校裏","name:ja-Hira":"ねりまこうぎょうこうこううら","operator":"国際興業グループ","public_transport":"platform"}},{"type":"node","id":2681838783,"lat":35.7561642,"lon":139.656819,"tags":{"bus":"yes","highway":"bus_stop","name":"練馬工業高校裏","operator":"国際興業グループ","public_transport":"platform"}},{"type":"node","id":2681970399,"lat":35.7524978,"lon":139.6389577,"tags":{"addr:block_number":"16","addr:city":"練馬区","addr:country":"JP","addr:full":"東京都練馬区春日町4丁目16 番地","addr:neighbourhood":"4","addr:province":"東京都","addr:quarter":"春日町","bus":"yes","highway":"bus_stop","name":"春日町青少年館前","name:ja-Hira":"かすがちょうせいしょうねんかんまえ","name:ja-Latn":"Kasugachō Sēshōnenkan-mae","network":"西武バス","network:en":"Seibu Bus","network:ja":"西武バス","network:wikidata":"Q11628880","operator":"西武バス","public_transport":"platform"}},{"type":"node","id":2681970400,"lat":35.7532995,"lon":139.6384276,"tags":{"addr:block_number":"6","addr:city":"練馬区","addr:country":"JP","addr:full":"東京都練馬区春日町6丁目6 番地","addr:neighbourhood":"6","addr:province":"東京都","addr:quarter":"春日町","highway":"bus_stop","name":"春日町青少年館前","name:ja-Hira":"かすがちょうせいしょうねんかんまえ","name:ja-Latn":"Kasugachō Sēshōnenkan-mae","operator":"西武バス","public_transport":"platform"}},{"type":"node","id":2681970401,"lat":35.7591337,"lon":139.6358554,"tags":{"highway":"bus_stop","name":"田柄三丁目","operator":"西武バス","public_transport":"platform"}},{"type":"node","id":2681970402,"lat":35.7601467,"lon":139.6355171,"tags":{"bench":"yes","bus":"yes","highway":"bus_stop","name":"田柄三丁目","operator":"西武バス","public_transport":"platform","shelter":"no","tactile_paving":"no"}},{"type":"node","id":2681970403,"lat":35.7595801,"lon":139.6360302,"tags":{"bus":"yes","highway":"bus_stop","name":"田柄町","operator":"国際興業グループ","public_transport":"platform"}},{"type":"node","id":2681970404,"lat":35.7596243,"lon":139.6364608,"tags":{"bus":"yes","highway":"bus_stop","name":"田柄町","operator":"国際興業グループ","public_transport":"platform"}},{"type":"node","id":2681970405,"lat":35.7626988,"lon":139.6354916,"tags":{"highway":"bus_stop","name":"田柄高校","operator":"西武バス","public_transport":"platform"}},{"type":"node","id":2681970406,"lat":35.7628627,"lon":139.6353793,"tags":{"highway":"bus_stop","name":"田柄高校","operator":"西武バス","public_transport":"platform"}},{"type":"node","id":2681970407,"lat":35.7371309,"lon":139.653276,"tags":{"bus":"yes","highway":"bus_stop","name":"練馬駅前通り","operator":"西武バス","public_transport":"platform"}},{"type":"node","id":2681970408,"lat":35.7561628,"lon":139.6369359,"tags":{"highway":"bus_stop","name":"練馬高校","operator":"西武バス","public_transport":"platform"}},{"type":"node","id":2681970409,"lat":35.7569255,"lon":139.6366525,"tags":{"highway":"bus_stop","name":"練馬高校","operator":"西武バス","public_transport":"platform","shelter":"no"}},{"type":"node","id":2694490021,"lat":35.7601316,"lon":139.6315249,"tags":{"bus":"yes","highway":"bus_stop","name":"光が丘二丁目","public_transport":"platform"}},{"type":"node","id":2694490027,"lat":35.7608162,"lon":139.6348373,"tags":{"highway":"bus_stop","name":"光が丘秋の陽小学校","operator":"国際興業グループ","public_transport":"platform"}},{"type":"node","id":2694490034,"lat":35.7609293,"lon":139.6345783,"tags":{"highway":"bus_stop","name":"光が丘秋の陽小学校","operator":"国際興業グループ","public_transport":"platform"}},{"type":"node","id":2694490040,"lat":35.7594661,"lon":139.6514667,"tags":{"bus":"yes","highway":"bus_stop","name":"北町六丁目","public_transport":"platform"}},{"type":"node","id":2694490049,"lat":35.7594921,"lon":139.6516067,"tags":{"bus":"yes","highway":"bus_stop","name":"北町六丁目","public_transport":"platform"}},{"type":"node","id":2694490056,"lat":35.7598721,"lon":139.6462866,"tags":{"bus":"yes","highway":"bus_stop","name":"南田柄","operator":"国際興業グループ","public_transport":"platform"}},{"type":"node","id":2694490064,"lat":35.7598953,"lon":139.6454989,"tags":{"bus":"yes","highway":"bus_stop","name":"南田柄","operator":"国際興業グループ","public_transport":"platform"}},{"type":"node","id":2694490073,"lat":35.7594409,"lon":139.6492517,"tags":{"bus":"yes","highway":"bus_stop","name":"田柄一丁目","operator":"国際興業グループ","public_transport":"platform"}},{"type":"node","id":2694490079,"lat":35.7594673,"lon":139.6481946,"tags":{"bus":"yes","highway":"bus_stop","name":"田柄一丁目","operator":"国際興業グループ","public_transport":"platform"}},{"type":"node","id":2694490087,"lat":35.7595158,"lon":139.6381525,"tags":{"bus":"yes","highway":"bus_stop","name":"田柄三丁目","operator":"国際興業グループ","public_transport":"platform"}},{"type":"node","id":2694490094,"lat":35.7596892,"lon":139.6386998,"tags":{"bus":"yes","highway":"bus_stop","name":"田柄三丁目","operator":"国際興業グループ","public_transport":"platform"}},{"type":"node","id":2694490100,"lat":35.7600874,"lon":139.6415431,"tags":{"bus":"yes","highway":"bus_stop","name":"田柄中学校","operator":"国際興業グループ","public_transport":"platform"}},{"type":"node","id":2694490107,"lat":35.760157,"lon":139.6420388,"tags":{"bus":"yes","highway":"bus_stop","name":"田柄中学校","operator":"国際興業グループ","public_transport":"platform"}},{"type":"node","id":2694490114,"lat":35.7590463,"lon":139.6324613,"tags":{"highway":"bus_stop","name":"田柄五丁目","operator":"国際興業グループ","public_transport":"platform"}},{"type":"node","id":2694490118,"lat":35.7592827,"lon":139.6334875,"tags":{"bus":"yes","highway":"bus_stop","name":"田柄五丁目","operator":"国際興業グループ","public_transport":"platform"}},{"type":"node","id":2694530696,"lat":35.7551421,"lon":139.6266759,"tags":{"bus":"yes","highway":"bus_stop","name":"光が丘七丁目","public_transport":"platform"}},{"type":"node","id":2694530704,"lat":35.7554278,"lon":139.6265339,"tags":{"bus":"yes","highway":"bus_stop","name":"光が丘七丁目","public_transport":"platform"}},{"type":"node","id":2694530714,"lat":35.7536775,"lon":139.6276298,"tags":{"bus":"yes","highway":"bus_stop","name":"光が丘南通り","operator":"国際興業グループ;西武バス","public_transport":"platform"}},{"type":"node","id":2694530725,"lat":35.7537929,"lon":139.6271752,"tags":{"bus":"yes","highway":"bus_stop","name":"光が丘南通り","operator":"国際興業グループ;西武バス","public_transport":"platform"}},{"type":"node","id":2694530737,"lat":35.7592666,"lon":139.6591325,"tags":{"bus":"yes","highway":"bus_stop","name":"自衛隊南","operator":"国際興業グループ","public_transport":"platform"}},{"type":"node","id":2694530752,"lat":35.7593097,"lon":139.6591964,"tags":{"bus":"yes","highway":"bus_stop","name":"自衛隊南","operator":"国際興業グループ","public_transport":"platform"}},{"type":"node","id":2694530761,"lat":35.7536976,"lon":139.6303796,"tags":{"bus":"yes","highway":"bus_stop","name":"高松四丁目","operator":"国際興業グループ;西武バス","public_transport":"platform"}},{"type":"node","id":2694530768,"lat":35.75382,"lon":139.6298658,"tags":{"bus":"yes","highway":"bus_stop","image":"https://storage4.openstreetcam.org/files/photo/2017/7/1/lth/476358_fa3c9_9.jpg","name":"高松四丁目","operator":"国際興業グループ;西武バス","public_transport":"platform","shelter":"yes","survey:date":"2017-07-01"}},{"type":"node","id":2807574338,"lat":35.774106,"lon":139.5943186,"tags":{"bus":"yes","highway":"bus_stop","name":"長久保","network":"西武バス","network:en":"Seibu Bus","network:ja":"西武バス","network:wikidata":"Q11628880","operator":"西武バス","public_transport":"platform"}},{"type":"node","id":2809024932,"lat":35.7629903,"lon":139.6677559,"tags":{"bench":"no","highway":"bus_stop","name":"北町一丁目","public_transport":"platform","shelter":"no","tactile_paving":"yes"}},{"type":"node","id":2831496076,"lat":35.7664804,"lon":139.6573838,"tags":{"highway":"bus_stop","image":"http://storage5.openstreetcam.org/files/photo/2017/8/11/lth/523963_2662d_12.jpg","name":"北町中学校","name:en":"Kitamachi-chugakko","pole":"yes","shelter":"no","survey:date":"2017-08-11"}},{"type":"node","id":2924656719,"lat":35.7403627,"lon":139.6537069,"tags":{"bus":"yes","highway":"bus_stop","name":"南町小学校","public_transport":"platform"}},{"type":"node","id":2924656720,"lat":35.7404741,"lon":139.6536064,"tags":{"highway":"bus_stop","name":"南町小学校","public_transport":"platform"}},{"type":"node","id":2924656721,"lat":35.7449055,"lon":139.6533354,"tags":{"highway":"bus_stop","name":"練馬総合運動場","public_transport":"platform"}},{"type":"node","id":2924656722,"lat":35.7450295,"lon":139.6529217,"tags":{"highway":"bus_stop","name":"練馬総合運動場","public_transport":"platform"}},{"type":"node","id":2924656723,"lat":35.7430198,"lon":139.6538438,"tags":{"highway":"bus_stop","name":"開進第二中学校","public_transport":"platform"}},{"type":"node","id":2924656724,"lat":35.7432624,"lon":139.6539293,"tags":{"highway":"bus_stop","name":"開進第二中学校","public_transport":"platform"}},{"type":"node","id":3299379764,"lat":35.7352553,"lon":139.6546602,"tags":{"bus":"yes","fixme":"このバス停を正しい位置に移動して欲しい","highway":"bus_stop","name":"下新街","operator":"京王バス東","public_transport":"platform","shelter":"no"}},{"type":"node","id":3299379766,"lat":35.734966,"lon":139.6475355,"tags":{"bus":"yes","fixme":"このバス停を正しい位置に移動して欲しい","highway":"bus_stop","name":"中村北一丁目","name:en":"Nakamura-kita-itchome","operator":"京王バス東","public_transport":"platform"}},{"type":"node","id":3299379770,"lat":35.7320987,"lon":139.6475605,"tags":{"bus":"yes","fixme":"このバス停を正しい位置に移動して欲しい","highway":"bus_stop","name":"南蔵院","name:en":"Nanzoin","operator":"京王バス東","public_transport":"platform"}},{"type":"node","id":3299379772,"lat":35.7293939,"lon":139.6604424,"tags":{"bus":"yes","fixme":"このバス停を正しい位置に移動して欲しい","highway":"bus_stop","name":"徳田","operator":"京王バス東","public_transport":"platform"}},{"type":"node","id":3299379777,"lat":35.7271764,"lon":139.6624899,"tags":{"bus":"yes","fixme":"このバス停を正しい位置に移動して欲しい","highway":"bus_stop","name":"浄風園前","operator":"京王バス東","public_transport":"platform"}},{"type":"node","id":3299379778,"lat":35.7361427,"lon":139.6516293,"tags":{"bus":"yes","fixme":"このバス停を正しい位置に移動して欲しい","highway":"bus_stop","name":"練馬区役所","operator":"京王バス東","public_transport":"platform"}},{"type":"node","id":3299379780,"lat":35.7322763,"lon":139.6546038,"tags":{"bus":"yes","fixme":"このバス停を正しい位置に移動して欲しい","highway":"bus_stop","name":"豊玉中三丁目","operator":"京王バス東","public_transport":"platform"}},{"type":"node","id":3299379781,"lat":35.7315453,"lon":139.6588266,"tags":{"bus":"yes","fixme":"このバス停を正しい位置に移動して欲しい","highway":"bus_stop","name":"豊玉中二丁目","operator":"京王バス東;関東バス;東京都交通局;国際興業","public_transport":"platform"}},{"type":"node","id":3299379782,"lat":35.7320443,"lon":139.6505083,"tags":{"bus":"yes","fixme":"このバス停を正しい位置に移動して欲しい","highway":"bus_stop","name":"豊玉小学校","name:en":"Toyotama-shogakko","operator":"京王バス東","public_transport":"platform"}},{"type":"node","id":3300134446,"lat":35.7231305,"lon":139.566505,"tags":{"bus":"yes","highway":"bus_stop","name":"三ッ塚","operator":"西武バス;関東バス","public_transport":"platform"}},{"type":"node","id":3300134448,"lat":35.7226228,"lon":139.5688117,"tags":{"bus":"yes","covered":"yes","highway":"bus_stop","name":"北裏","operator":"西武バス;関東バス","passenger_information_display":"yes","public_transport":"platform"}},{"type":"node","id":3300134450,"lat":35.7221184,"lon":139.5820038,"tags":{"bus":"yes","highway":"bus_stop","name":"吉祥寺通り入口","network":"西武バス","network:en":"Seibu Bus","network:ja":"西武バス","network:wikidata":"Q11628880","operator":"西武バス","public_transport":"platform"}},{"type":"node","id":3300134453,"lat":35.7230685,"lon":139.5737091,"tags":{"bus":"yes","highway":"bus_stop","name":"慈雲堂前","operator":"西武バス;関東バス","public_transport":"platform"}},{"type":"node","id":3300134454,"lat":35.7199931,"lon":139.5827356,"tags":{"bus":"yes","highway":"bus_stop","name":"東京三育小学校入口","network":"西武バス","network:en":"Seibu Bus","network:ja":"西武バス","network:wikidata":"Q11628880","operator":"西武バス","public_transport":"platform"}},{"type":"node","id":3300134460,"lat":35.715458,"lon":139.5832482,"tags":{"bus":"yes","highway":"bus_stop","name":"武蔵野寮前","network":"西武バス","network:en":"Seibu Bus","network:ja":"西武バス","network:wikidata":"Q11628880","network:wikipedia":"ja:西武バス","operator":"西武バス","public_transport":"platform"}},{"type":"node","id":3300135170,"lat":35.7231966,"lon":139.5772669,"tags":{"bus":"yes","highway":"bus_stop","name":"関町南三丁目","network":"西武バス","network:en":"Seibu Bus","network:ja":"西武バス","network:wikidata":"Q11628880","operator":"西武バス","public_transport":"platform"}},{"type":"node","id":3300135171,"lat":35.7177114,"lon":139.5828619,"tags":{"bus":"yes","highway":"bus_stop","name":"関町南二丁目","network":"西武バス","network:en":"Seibu Bus","network:ja":"西武バス","network:wikidata":"Q11628880","operator":"西武バス","public_transport":"platform","shelter":"yes"}},{"type":"node","id":3300135172,"lat":35.7230961,"lon":139.5748993,"tags":{"bus":"yes","highway":"bus_stop","name":"関町郵便局前","network":"西武バス","network:en":"Seibu Bus","network:ja":"西武バス","network:wikidata":"Q11628880","operator":"西武バス","public_transport":"platform"}},{"type":"node","id":3315572399,"lat":35.721935,"lon":139.5869534,"tags":{"bus":"yes","highway":"bus_stop","name":"水道端","network":"関東バス","network:en":"Kanto Bus","network:ja":"関東バス","network:wikidata":"Q11655856","network:wikipedia":"ja:関東バス","operator":"関東バス","public_transport":"platform"}},{"type":"node","id":3315572402,"lat":35.7230889,"lon":139.5822997,"tags":{"bus":"yes","highway":"bus_stop","name":"関町二丁目","network":"関東バス","network:en":"Kanto Bus","network:ja":"関東バス","network:wikidata":"Q11655856","operator":"関東バス","public_transport":"platform"}},{"type":"node","id":3315572403,"lat":35.7200946,"lon":139.5910403,"tags":{"bus":"yes","covered":"yes","highway":"bus_stop","name":"青梅街道営業所","network":"関東バス","network:en":"Kanto Bus","network:ja":"関東バス","network:wikidata":"Q11655856","operator":"関東バス","public_transport":"platform"}},{"type":"node","id":3349779253,"lat":35.7439113,"lon":139.6726652,"tags":{"bus":"yes","fixme":"このバス停を正しい位置に移動させて欲しい","highway":"bus_stop","name":"小竹町二丁目","name:en":"Kotakecho-nichome","operator":"関東バス;東京都交通局;国際興業","public_transport":"platform"}},{"type":"node","id":3349779256,"lat":35.7413768,"lon":139.6691715,"tags":{"bus":"yes","fixme":"このバス停を正しい位置に移動させて欲しい","highway":"bus_stop","name":"羽沢","operator":"関東バス;東京都交通局;国際興業","public_transport":"platform"}},{"type":"node","id":3349779257,"lat":35.7296242,"lon":139.6567002,"tags":{"bus":"yes","fixme":"このバス停を正しい位置に移動させて欲しい","highway":"bus_stop","name":"豊玉中","operator":"関東バス;東京都交通局;国際興業","public_transport":"platform"}},{"type":"node","id":3349779258,"lat":35.7361152,"lon":139.6640262,"tags":{"bus":"yes","fixme":"このバス停を正しい位置に移動させて欲しい","highway":"bus_stop","name":"豊玉北","operator":"関東バス;東京都交通局;国際興業","public_transport":"platform"}},{"type":"node","id":3492566693,"lat":35.729506,"lon":139.591356,"tags":{"bus":"yes","highway":"bus_stop","name":"上石神井中学校入口","public_transport":"platform"}},{"type":"node","id":3492566794,"lat":35.7318516,"lon":139.5868876,"tags":{"bus":"yes","highway":"bus_stop","name":"石神井台四丁目","network":"みどりバス","public_transport":"platform"}},{"type":"node","id":3492567293,"lat":35.730814,"lon":139.590326,"tags":{"bus":"yes","highway":"bus_stop","name":"石神井清掃事務所","public_transport":"platform"}},{"type":"node","id":3492567294,"lat":35.7319601,"lon":139.58723,"tags":{"bus":"yes","highway":"bus_stop","name":"石神井台四丁目","network":"みどりバス","public_transport":"platform"}},{"type":"node","id":3492568294,"lat":35.7317101,"lon":139.5834457,"tags":{"bus":"yes","highway":"bus_stop","name":"上石神井アパート","network":"みどりバス","public_transport":"platform"}},{"type":"node","id":3492568896,"lat":35.731473,"lon":139.568869,"tags":{"highway":"bus_stop","name":"石神井高校北"}},{"type":"node","id":3492569893,"lat":35.731846,"lon":139.582886,"tags":{"bus":"yes","highway":"bus_stop","name":"上石神井アパート","network":"みどりバス","public_transport":"platform"}},{"type":"node","id":3492580493,"lat":35.7316759,"lon":139.5800326,"tags":{"bus":"yes","highway":"bus_stop","name":"石神井台七丁目","network":"みどりバス","public_transport":"platform"}},{"type":"node","id":3492580494,"lat":35.731312,"lon":139.571054,"tags":{"highway":"bus_stop","name":"石神井高校前"}},{"type":"node","id":3492582393,"lat":35.731447,"lon":139.575003,"tags":{"bus":"yes","highway":"bus_stop","name":"女子学院入口","public_transport":"platform"}},{"type":"node","id":3492582394,"lat":35.731291,"lon":139.574168,"tags":{"bus":"yes","highway":"bus_stop","name":"女子学院入口","public_transport":"platform"}},{"type":"node","id":3937028070,"lat":35.720605,"lon":139.589984,"tags":{"highway":"bus_stop","name":"青梅街道営業所","operator":"西武バス"}},{"type":"node","id":3937038958,"lat":35.7230855,"lon":139.5790216,"tags":{"bench":"no","bin":"no","bus":"yes","covered":"no","highway":"bus_stop","name":"関町三丁目","network":"西武バス","network:en":"Seibu Bus","network:ja":"西武バス","network:wikidata":"Q11628880","public_transport":"platform","shelter":"no"}},{"type":"node","id":3938603789,"lat":35.720309,"lon":139.5911329,"tags":{"bus":"yes","highway":"bus_stop","name":"青梅街道営業所","network":"関東バス","network:en":"Kanto Bus","network:ja":"関東バス","network:wikidata":"Q11655856","public_transport":"platform"}},{"type":"node","id":3938603790,"lat":35.7218343,"lon":139.5878641,"tags":{"bus":"yes","highway":"bus_stop","name":"水道端","network":"西武バス","network:en":"Seibu Bus","network:ja":"西武バス","network:wikidata":"Q11628880","public_transport":"platform"}},{"type":"node","id":3938603806,"lat":35.7232549,"lon":139.5824124,"tags":{"bus":"yes","highway":"bus_stop","name":"関町二丁目","network":"関東バス","network:en":"Kanto Bus","network:ja":"関東バス","network:wikidata":"Q11655856","operator":"関東バス","public_transport":"platform"}},{"type":"node","id":3991528357,"lat":35.737732,"lon":139.5831261,"tags":{"bus":"yes","highway":"bus_stop","name":"西武車庫前","public_transport":"platform"}},{"type":"node","id":4169748903,"lat":35.7489574,"lon":139.5860369,"tags":{"bus":"yes","highway":"bus_stop","local_ref":"3","name":"大泉学園駅南口","name:en":"Ooizumigakuen station","name:ja":"大泉学園駅","name:ja_kana":"おおいずみがくえんえき","operator":"西武バス;関東バス","public_transport":"platform","shelter":"no"}},{"type":"node","id":4235358379,"lat":35.7490838,"lon":139.586252,"tags":{"bus":"yes","highway":"bus_stop","local_ref":"4","name":"大泉学園駅南口","name:en":"Ooizumigakuen station","name:ja":"大泉学園駅","name:ja_kana":"おおいずみがくえんえき","network":"西武バス","network:en":"Seibu Bus","network:ja":"西武バス","network:wikidata":"Q11628880","network:wikipedia":"ja:西武バス","operator":"西武バス","public_transport":"platform"}},{"type":"node","id":4235358380,"lat":35.7491144,"lon":139.5860432,"tags":{"bus":"yes","highway":"bus_stop","local_ref":"1","name":"大泉学園駅南口","name:en":"Ooizumigakuen station","name:ja":"大泉学園駅","name:ja_kana":"おおいずみがくえんえき","network":"西武バス","network:en":"Seibu Bus","network:ja":"西武バス","network:wikidata":"Q11628880","network:wikipedia":"ja:西武バス","operator":"西武バス","public_transport":"platform","shelter":"no"}},{"type":"node","id":4235358381,"lat":35.7491074,"lon":139.5860866,"tags":{"bus":"yes","highway":"bus_stop","local_ref":"2","name":"大泉学園駅南口","name:en":"Ooizumigakuen station","name:ja":"大泉学園駅","name:ja_kana":"おおいずみがくえんえき","network":"西武バス","network:en":"Seibu Bus","network:ja":"西武バス","network:wikidata":"Q11628880","network:wikipedia":"ja:西武バス","operator":"西武バス","public_transport":"platform","shelter":"no"}},{"type":"node","id":4235358382,"lat":35.7434417,"lon":139.6069433,"tags":{"bus":"yes","highway":"bus_stop","local_ref":"6","name":"石神井公園駅","network":"関東バス","network:en":"Kanto Bus","network:ja":"関東バス","network:wikidata":"Q11655856","operator":"関東バス","public_transport":"platform"}},{"type":"node","id":4235358383,"lat":35.7437176,"lon":139.6069152,"tags":{"bus":"yes","highway":"bus_stop","local_ref":"5","name":"石神井公園駅南口","network":"西武バス","network:en":"Seibu Bus","network:ja":"西武バス","network:wikidata":"Q11628880","operator":"西武バス","public_transport":"platform"}},{"type":"node","id":4235358384,"lat":35.7437362,"lon":139.6065329,"tags":{"bus":"yes","highway":"bus_stop","local_ref":"4","name":"石神井公園駅南口","network":"西武バス","network:en":"Seibu Bus","network:ja":"西武バス","network:wikidata":"Q11628880","operator":"西武バス","public_transport":"platform"}},{"type":"node","id":4235358388,"lat":35.774163,"lon":139.5939894,"tags":{"bus":"yes","highway":"bus_stop","name":"長久保","network":"西武バス","network:en":"Seibu Bus","network:ja":"西武バス","network:wikidata":"Q11628880","operator":"西武バス","public_transport":"platform"}},{"type":"node","id":4920144523,"lat":35.7387346,"lon":139.6421721,"tags":{"bus":"yes","highway":"bus_stop","name":"向山町","network":"西武バス","network:en":"Seibu Bus","network:ja":"西武バス","network:wikidata":"Q11628880","network:wikipedia":"ja:西武バス","operator":"西武バス","public_transport":"platform"}},{"type":"node","id":4920144524,"lat":35.7408096,"lon":139.6374616,"tags":{"bus":"yes","highway":"bus_stop","name":"中村橋駅入口","operator":"西武バス","public_transport":"platform"}},{"type":"node","id":4920144525,"lat":35.7442548,"lon":139.6347351,"tags":{"bus":"yes","highway":"bus_stop","name":"練馬中学校","operator":"西武バス","public_transport":"platform"}},{"type":"node","id":4920144526,"lat":35.7464784,"lon":139.6301543,"tags":{"bus":"yes","highway":"bus_stop","name":"高松二丁目","operator":"西武バス","public_transport":"platform"}},{"type":"node","id":4920144527,"lat":35.7477422,"lon":139.6270888,"tags":{"bus":"yes","highway":"bus_stop","name":"高松三丁目","operator":"西武バス","public_transport":"platform"}},{"type":"node","id":4920144528,"lat":35.749004,"lon":139.6241912,"tags":{"bus":"yes","highway":"bus_stop","name":"真宗会館前","network":"西武バス","network:en":"Seibu Bus","network:ja":"西武バス","network:wikidata":"Q11628880","network:wikipedia":"ja:西武バス","operator":"西武バス","public_transport":"platform","shelter":"yes"}},{"type":"node","id":4920144529,"lat":35.748796,"lon":139.6213264,"tags":{"bus":"yes","highway":"bus_stop","name":"練馬総合体育館","network":"西武バス","network:en":"Seibu Bus","network:ja":"西武バス","network:wikidata":"Q11628880","network:wikipedia":"ja:西武バス","operator":"西武バス","public_transport":"platform","shelter":"yes"}},{"type":"node","id":4920144530,"lat":35.749274,"lon":139.6192608,"tags":{"bus":"yes","highway":"bus_stop","name":"谷原二丁目","operator":"西武バス","public_transport":"platform"}},{"type":"node","id":4920144531,"lat":35.7525769,"lon":139.619692,"tags":{"bus":"yes","highway":"bus_stop","name":"谷原三丁目","network":"西武バス","network:en":"Seibu Bus","network:ja":"西武バス","network:wikidata":"Q11628880","operator":"西武バス","public_transport":"platform"}},{"type":"node","id":4920144532,"lat":35.7554632,"lon":139.6205422,"tags":{"bus":"yes","highway":"bus_stop","name":"光が丘南入口","network":"西武バス","network:en":"Seibu Bus","network:ja":"西武バス","network:wikidata":"Q11628880","operator":"西武バス","public_transport":"platform"}},{"type":"node","id":4920144533,"lat":35.7571153,"lon":139.6207863,"tags":{"bus":"yes","highway":"bus_stop","name":"高松五丁目","network":"西武バス","network:en":"Seibu Bus","network:ja":"西武バス","network:wikidata":"Q11628880","operator":"西武バス","public_transport":"platform"}},{"type":"node","id":4920144534,"lat":35.760392,"lon":139.6204133,"tags":{"bus":"yes","highway":"bus_stop","name":"高松大門通り","network":"西武バス","network:en":"Seibu Bus","network:ja":"西武バス","network:wikidata":"Q11628880","operator":"西武バス","public_transport":"platform"}},{"type":"node","id":4920144535,"lat":35.763375,"lon":139.6199656,"tags":{"bus":"yes","highway":"bus_stop","name":"旭町一丁目","network":"西武バス","network:en":"Seibu Bus","network:ja":"西武バス","network:wikidata":"Q11628880","operator":"西武バス","public_transport":"platform"}},{"type":"node","id":4920144539,"lat":35.7760178,"lon":139.6257025,"tags":{"bus":"yes","highway":"bus_stop","name":"旭町三丁目","operator":"西武バス","public_transport":"platform"}},{"type":"node","id":4920144540,"lat":35.7761236,"lon":139.6291669,"tags":{"bus":"yes","highway":"bus_stop","name":"旭町","operator":"西武バス","public_transport":"platform"}},{"type":"node","id":5291011425,"lat":35.7423408,"lon":139.5871948,"tags":{"bus":"yes","highway":"bus_stop","name":"第五上石神井住宅","name:en":"Dai-Go-Kamishakuji-Jyutaku-Mae","public_transport":"platform"}},{"type":"node","id":5291034121,"lat":35.7425471,"lon":139.5869106,"tags":{"highway":"bus_stop","name":"第五上石神井住宅前"}},{"type":"node","id":5292661221,"lat":35.737365,"lon":139.5816697,"tags":{"bus":"yes","highway":"bus_stop","name":"西村","public_transport":"platform"}},{"type":"node","id":5365492870,"lat":35.7491995,"lon":139.5861281,"tags":{"bus":"yes","highway":"bus_stop","local_ref":"2","name":"大泉学園駅南口","public_transport":"platform","shelter":"no"}},{"type":"node","id":5406575256,"lat":35.7306763,"lon":139.6396351,"tags":{"bus":"yes","highway":"bus_stop","name":"中村八幡","public_transport":"platform"}},{"type":"node","id":5406575257,"lat":35.7304746,"lon":139.6395764,"tags":{"bus":"yes","highway":"bus_stop","name":"中村八幡","public_transport":"platform"}},{"type":"node","id":5406575258,"lat":35.7285267,"lon":139.6393852,"tags":{"bus":"yes","highway":"bus_stop","name":"中村南三丁目","public_transport":"platform"}},{"type":"node","id":5406575259,"lat":35.7283608,"lon":139.6392591,"tags":{"bus":"yes","highway":"bus_stop","name":"中村南三丁目","public_transport":"platform"}},{"type":"node","id":5584354500,"lat":35.7309041,"lon":139.6544148,"tags":{"bus":"yes","highway":"bus_stop","public_transport":"platform"}},{"type":"node","id":5584354501,"lat":35.7288991,"lon":139.6541738,"tags":{"bus":"yes","highway":"bus_stop","public_transport":"platform"}},{"type":"node","id":5584354502,"lat":35.7306907,"lon":139.6542991,"tags":{"bus":"yes","highway":"bus_stop","name":"豊玉中三丁目アパート","public_transport":"platform"}},{"type":"node","id":5584354641,"lat":35.7327451,"lon":139.6545527,"tags":{"bus":"yes","highway":"bus_stop","name":"豊玉こうしん通り","public_transport":"platform"}},{"type":"node","id":5584354642,"lat":35.733101,"lon":139.6546789,"tags":{"bus":"yes","highway":"bus_stop","public_transport":"platform"}},{"type":"node","id":5587411705,"lat":35.7314303,"lon":139.6199183,"tags":{"bus":"yes","highway":"bus_stop","name":"南田中一丁目","public_transport":"platform","shelter":"no"}},{"type":"node","id":5587411706,"lat":35.7304745,"lon":139.6164744,"tags":{"bus":"yes","highway":"bus_stop","name":"八成橋東","public_transport":"platform"}},{"type":"node","id":5587411707,"lat":35.7311711,"lon":139.618557,"tags":{"bus":"yes","highway":"bus_stop","name":"降車専用","operator":"西武","public_transport":"platform"}},{"type":"node","id":5587425283,"lat":35.7318851,"lon":139.6218331,"tags":{"bus":"yes","highway":"bus_stop","name":"南田中","public_transport":"platform"}},{"type":"node","id":5587425284,"lat":35.7318245,"lon":139.6220043,"tags":{"bus":"yes","highway":"bus_stop","public_transport":"platform"}},{"type":"node","id":5587425311,"lat":35.7330366,"lon":139.6263095,"tags":{"bus":"yes","highway":"bus_stop","name":"富士見台一丁目","public_transport":"platform"}},{"type":"node","id":5587442834,"lat":35.7358155,"lon":139.6353743,"tags":{"bus":"yes","highway":"bus_stop","name":"中村北四丁目","public_transport":"platform"}},{"type":"node","id":5587442891,"lat":35.7360436,"lon":139.6369076,"tags":{"bus":"yes","highway":"bus_stop","public_transport":"platform"}},{"type":"node","id":5587461544,"lat":35.7365347,"lon":139.6400604,"tags":{"bus":"yes","highway":"bus_stop","name":"中村橋駅","public_transport":"platform"}},{"type":"node","id":5587461555,"lat":35.7368548,"lon":139.643879,"tags":{"bus":"yes","highway":"bus_stop","name":"中村北二丁目","public_transport":"platform"}},{"type":"node","id":5587461564,"lat":35.736551,"lon":139.6478626,"tags":{"bus":"yes","highway":"bus_stop","name":"東電支社前","public_transport":"platform"}},{"type":"node","id":5587461565,"lat":35.7367888,"lon":139.6495234,"tags":{"bus":"yes","highway":"bus_stop","name":"練馬区役所","operator":"KEIO","public_transport":"platform"}},{"type":"node","id":5601077194,"lat":35.7381301,"lon":139.6606609,"tags":{"bus":"yes","highway":"bus_stop","public_transport":"platform","wheelchair":"yes"}},{"type":"node","id":5601078055,"lat":35.7383041,"lon":139.663383,"tags":{"bus":"yes","highway":"bus_stop","public_transport":"platform","wheelchair":"yes"}},{"type":"node","id":5601078066,"lat":35.7384862,"lon":139.6648882,"tags":{"bus":"yes","highway":"bus_stop","name":"練馬車庫前","public_transport":"platform","wheelchair":"yes"}},{"type":"node","id":5601377320,"lat":35.7375583,"lon":139.6687888,"tags":{"bus":"yes","highway":"bus_stop","public_transport":"platform"}},{"type":"node","id":5601377736,"lat":35.7363644,"lon":139.6723557,"tags":{"bus":"yes","highway":"bus_stop","name":"江古田駅","public_transport":"platform"}},{"type":"node","id":5601377742,"lat":35.7376933,"lon":139.6681182,"tags":{"bus":"yes","highway":"bus_stop","public_transport":"platform"}},{"type":"node","id":5603199529,"lat":35.7331595,"lon":139.6763711,"tags":{"bus":"yes","highway":"bus_stop","name":"練馬総合病院入口","network":"都営バス","public_transport":"platform","route_ref":"白61,練68"}},{"type":"node","id":5784050245,"lat":35.7734817,"lon":139.5866632,"tags":{"bus":"yes","highway":"bus_stop","name":"都民農園","name:en":"Tomin-noen","public_transport":"platform"}},{"type":"node","id":5841525567,"lat":35.7531472,"lon":139.5954703,"tags":{"bus":"yes","highway":"bus_stop","name":"東映撮影所前","public_transport":"platform"}},{"type":"node","id":5841525569,"lat":35.7491476,"lon":139.6077141,"tags":{"bus":"yes","highway":"bus_stop","name":"和田","public_transport":"platform"}},{"type":"node","id":5841525571,"lat":35.7489906,"lon":139.6076395,"tags":{"bus":"yes","highway":"bus_stop","name":"和田","public_transport":"platform"}},{"type":"node","id":5841525572,"lat":35.7463946,"lon":139.6079234,"tags":{"bus":"yes","highway":"bus_stop","name":"光和小学校","public_transport":"platform"}},{"type":"node","id":5841525573,"lat":35.7472468,"lon":139.6080506,"tags":{"bus":"yes","highway":"bus_stop","name":"光和小学校","public_transport":"platform"}},{"type":"node","id":5841525574,"lat":35.7443364,"lon":139.6067275,"tags":{"bus":"yes","highway":"bus_stop","name":"石神井公園駅北口","public_transport":"platform"}},{"type":"node","id":5841525575,"lat":35.7440812,"lon":139.6070065,"tags":{"bus":"yes","highway":"bus_stop","local_ref":"2","name":"石神井公園駅北口","network":"西武バス","network:en":"Seibu Bus","network:ja":"西武バス","network:wikidata":"Q11628880","operator":"西武バス","public_transport":"platform"}},{"type":"node","id":5841525576,"lat":35.7439456,"lon":139.6066524,"tags":{"bus":"yes","highway":"bus_stop","local_ref":"1","name":"石神井公園駅北口","operator":"西武バス;国際興業","public_transport":"platform"}},{"type":"node","id":5844720427,"lat":35.7412817,"lon":139.6068776,"tags":{"bus":"yes","highway":"bus_stop","name":"石神井公園","network":"西武バス","network:en":"Seibu Bus","network:ja":"西武バス","network:wikidata":"Q11628880","operator":"西武バス","public_transport":"platform"}},{"type":"node","id":6187679518,"lat":35.7320879,"lon":139.6391852,"tags":{"bus":"yes","highway":"bus_stop","name":"中村三丁目","public_transport":"platform"}},{"type":"node","id":6187679519,"lat":35.7325483,"lon":139.6391705,"tags":{"bus":"yes","highway":"bus_stop","name":"中村三丁目","public_transport":"platform"}},{"type":"node","id":6187679521,"lat":35.7335089,"lon":139.6389513,"tags":{"bus":"yes","highway":"bus_stop","name":"中村北三丁目","public_transport":"platform"}},{"type":"node","id":6187679523,"lat":35.7342056,"lon":139.640515,"tags":{"bus":"yes","highway":"bus_stop","name":"中村公園","public_transport":"platform"}},{"type":"node","id":6187679524,"lat":35.7361546,"lon":139.638773,"tags":{"bus":"yes","highway":"bus_stop","name":"中村橋駅","public_transport":"platform"}},{"type":"node","id":6187679525,"lat":35.7362749,"lon":139.6396139,"tags":{"bus":"yes","highway":"bus_stop","name":"中村橋駅","public_transport":"platform"}},{"type":"node","id":6216218516,"lat":35.7367038,"lon":139.6437131,"tags":{"bus":"yes","highway":"bus_stop","name":"中村北二丁目","network":"関東バス","operator":"関東バス","public_transport":"platform"}},{"type":"node","id":6216218517,"lat":35.7364116,"lon":139.6479329,"tags":{"bus":"yes","highway":"bus_stop","name":"東電支社前","public_transport":"platform"}},{"type":"node","id":6216218519,"lat":35.7358288,"lon":139.6522032,"tags":{"bench":"yes","bin":"no","bus":"yes","highway":"bus_stop","lit":"yes","name":"練馬区役所前","public_transport":"platform","shelter":"yes","tactile_paving":"yes"}},{"type":"node","id":6326957982,"lat":35.7549549,"lon":139.5761905,"tags":{"highway":"bus_stop","name":"丸山東橋"}},{"type":"node","id":6328218753,"lat":35.7626027,"lon":139.5774535,"tags":{"bus":"yes","highway":"bus_stop","name":"西大泉市民農園","public_transport":"platform"}},{"type":"node","id":6337598159,"lat":35.7540921,"lon":139.5790876,"tags":{"highway":"bus_stop","name":"小泉橋"}},{"type":"node","id":6387153810,"lat":35.7231708,"lon":139.5697506,"tags":{"bus":"yes","highway":"bus_stop","name":"北裏","network":"西武バス","network:en":"Seibu Bus","network:ja":"西武バス","network:wikidata":"Q11628880","operator":"西武バス","public_transport":"platform"}},{"type":"node","id":6387153811,"lat":35.7231708,"lon":139.5697673,"tags":{"bus":"yes","highway":"bus_stop","name":"北裏","network":"関東バス","network:en":"Kanto Bus","network:ja":"関東バス","network:wikidata":"Q11655856","operator":"関東バス","public_transport":"platform"}},{"type":"node","id":6387189976,"lat":35.7229884,"lon":139.5699739,"tags":{"bus":"yes","highway":"bus_stop","name":"北裏","network":"西武バス","network:en":"Seibu Bus","network:ja":"西武バス","network:wikidata":"Q11628880","operator":"西武バス","public_transport":"platform"}},{"type":"node","id":6387189977,"lat":35.7229879,"lon":139.5699457,"tags":{"bus":"yes","highway":"bus_stop","name":"北裏","network":"関東バス","network:en":"Kanto Bus","network:ja":"関東バス","network:wikidata":"Q11655856","operator":"関東バス","public_transport":"platform"}},{"type":"node","id":6387363363,"lat":35.7219301,"lon":139.5869757,"tags":{"bus":"yes","highway":"bus_stop","name":"水道端","network":"西武バス","network:en":"Seibu Bus","network:ja":"西武バス","network:wikidata":"Q11628880","network:wikipedia":"ja:西武バス","operator":"西武バス","public_transport":"platform"}},{"type":"node","id":6401980876,"lat":35.7383659,"lon":139.6646605,"tags":{"bus":"yes","highway":"bus_stop","name":"練馬車庫前","public_transport":"platform","wheelchair":"yes"}},{"type":"node","id":6404037085,"lat":35.7360347,"lon":139.6731705,"tags":{"bus":"yes","highway":"bus_stop","name":"江古田二又","public_transport":"platform","source":"survey"}},{"type":"node","id":6404037086,"lat":35.736005,"lon":139.6732051,"tags":{"bus":"yes","highway":"bus_stop","name":"江古田二又","public_transport":"platform","source":"survey"}},{"type":"node","id":6406388446,"lat":35.7552889,"lon":139.5872241,"tags":{"bus":"yes","highway":"bus_stop","name":"学園橋","public_transport":"platform"}},{"type":"node","id":6409198126,"lat":35.7515931,"lon":139.5797054,"tags":{"highway":"bus_stop","name":"妙福寺","network":"大泉学園駅行","operator":"みどりバス"}},{"type":"node","id":6409198170,"lat":35.7511373,"lon":139.5794159,"tags":{"highway":"bus_stop","name":"妙福寺","operator":"みどりバス"}},{"type":"node","id":6416215832,"lat":35.7507322,"lon":139.5818601,"tags":{"bus":"yes","highway":"bus_stop","name":"東大泉四丁目","operator":"みどりバス","public_transport":"platform"}},{"type":"node","id":6416215847,"lat":35.7506298,"lon":139.5811661,"tags":{"highway":"bus_stop","name":"東大泉四丁目","operator":"みどりバス"}},{"type":"node","id":6594196485,"lat":35.7336032,"lon":139.6711812,"tags":{"highway":"bus_stop"}},{"type":"node","id":6799260149,"lat":35.7385858,"lon":139.6420705,"tags":{"bus":"yes","highway":"bus_stop","name":"向山町","network":"西武バス","network:en":"Seibu Bus","network:ja":"西武バス","network:wikidata":"Q11628880","network:wikipedia":"ja:西武バス","operator":"西武バス","public_transport":"platform"}},{"type":"node","id":6799260150,"lat":35.7411633,"lon":139.6370893,"tags":{"bus":"yes","highway":"bus_stop","name":"中村橋駅入口","operator":"西武バス","public_transport":"platform"}},{"type":"node","id":6799260151,"lat":35.7439644,"lon":139.6348764,"tags":{"bus":"yes","highway":"bus_stop","name":"練馬中学校","operator":"西武バス","public_transport":"platform"}},{"type":"node","id":6799260152,"lat":35.7464219,"lon":139.6300671,"tags":{"bus":"yes","highway":"bus_stop","name":"高松二丁目","operator":"西武バス","public_transport":"platform"}},{"type":"node","id":6799260153,"lat":35.7481885,"lon":139.6261373,"tags":{"bus":"yes","highway":"bus_stop","name":"高松三丁目","network":"西武バス","network:en":"Seibu Bus","network:ja":"西武バス","network:wikidata":"Q11628880","operator":"西武バス","public_transport":"platform"}},{"type":"node","id":6799260154,"lat":35.7466017,"lon":139.6251081,"tags":{"bench":"no","bin":"no","bus":"yes","highway":"bus_stop","name":"練馬青果市場前","operator":"西武バス","public_transport":"platform","shelter":"no","tactile_paving":"yes"}},{"type":"node","id":6799260155,"lat":35.7480283,"lon":139.622385,"tags":{"bench":"yes","bin":"no","bus":"yes","highway":"bus_stop","name":"練馬総合体育館","network":"西武バス","network:en":"Seibu Bus","network:ja":"西武バス","network:wikidata":"Q11628880","network:wikipedia":"ja:西武バス","operator":"西武バス","public_transport":"platform","shelter":"yes"}},{"type":"node","id":6799260156,"lat":35.7498737,"lon":139.6186497,"tags":{"bus":"yes","highway":"bus_stop","name":"谷原二丁目","operator":"西武バス","public_transport":"platform"}},{"type":"node","id":6799260157,"lat":35.7516074,"lon":139.6192064,"tags":{"bus":"yes","highway":"bus_stop","name":"谷原三丁目","network":"西武バス","network:en":"Seibu Bus","network:ja":"西武バス","network:wikidata":"Q11628880","operator":"西武バス","public_transport":"platform"}},{"type":"node","id":6799260158,"lat":35.7546768,"lon":139.6200757,"tags":{"bus":"yes","highway":"bus_stop","name":"光が丘南入口","network":"西武バス","network:en":"Seibu Bus","network:ja":"西武バス","network:wikidata":"Q11628880","operator":"西武バス","public_transport":"platform"}},{"type":"node","id":6799260159,"lat":35.7580669,"lon":139.6205521,"tags":{"bus":"yes","highway":"bus_stop","name":"高松五丁目","network":"西武バス","network:en":"Seibu Bus","network:ja":"西武バス","network:wikidata":"Q11628880","operator":"西武バス","public_transport":"platform","shelter":"yes"}},{"type":"node","id":6799260160,"lat":35.7610314,"lon":139.6201126,"tags":{"bus":"yes","highway":"bus_stop","name":"高松大門通り","network":"西武バス","network:en":"Seibu Bus","network:ja":"西武バス","network:wikidata":"Q11628880","operator":"西武バス","public_transport":"platform"}},{"type":"node","id":6799260161,"lat":35.7631352,"lon":139.6198234,"tags":{"bus":"yes","highway":"bus_stop","name":"旭町一丁目","network":"西武バス","network:en":"Seibu Bus","network:ja":"西武バス","network:wikidata":"Q11628880","operator":"西武バス","public_transport":"platform"}},{"type":"node","id":6799343209,"lat":35.7769568,"lon":139.6254634,"tags":{"bus":"yes","highway":"bus_stop","name":"旭町三丁目","operator":"西武バス","public_transport":"platform"}},{"type":"node","id":6799475056,"lat":35.7491599,"lon":139.6175467,"tags":{"bus":"yes","highway":"bus_stop","name":"谷原二丁目","operator":"西武バス","public_transport":"platform"}},{"type":"node","id":6799475057,"lat":35.7493466,"lon":139.6147227,"tags":{"bus":"yes","highway":"bus_stop","name":"谷原小学校","operator":"西武バス","public_transport":"platform"}},{"type":"node","id":6799475058,"lat":35.7495821,"lon":139.6146873,"tags":{"bus":"yes","highway":"bus_stop","name":"谷原小学校","operator":"西武バス","public_transport":"platform"}},{"type":"node","id":6799475059,"lat":35.7500833,"lon":139.6101928,"tags":{"bus":"yes","highway":"bus_stop","name":"中原","operator":"西武バス","public_transport":"platform"}},{"type":"node","id":6799475060,"lat":35.7501651,"lon":139.6097274,"tags":{"bus":"yes","highway":"bus_stop","name":"中原","operator":"西武バス","public_transport":"platform"}},{"type":"node","id":6799475061,"lat":35.7502613,"lon":139.6067512,"tags":{"bus":"yes","highway":"bus_stop","name":"三原台一丁目","network":"西武バス","network:en":"Seibu Bus","network:ja":"西武バス","network:wikidata":"Q11628880","operator":"西武バス","public_transport":"platform"}},{"type":"node","id":6799475062,"lat":35.7502039,"lon":139.6061814,"tags":{"bus":"yes","highway":"bus_stop","name":"三原台一丁目","network":"西武バス","network:en":"Seibu Bus","network:ja":"西武バス","network:wikidata":"Q11628880","operator":"西武バス","public_transport":"platform"}},{"type":"node","id":6799475063,"lat":35.750313,"lon":139.6045198,"tags":{"bus":"yes","highway":"bus_stop","name":"稲荷前","network":"西武バス","network:en":"Seibu Bus","network:ja":"西武バス","network:wikidata":"Q11628880","operator":"西武バス","public_transport":"platform"}},{"type":"node","id":6799475064,"lat":35.7502542,"lon":139.6045251,"tags":{"bus":"yes","highway":"bus_stop","name":"稲荷前","network":"西武バス","network:en":"Seibu Bus","network:ja":"西武バス","network:wikidata":"Q11628880","operator":"西武バス","public_transport":"platform"}},{"type":"node","id":6799475065,"lat":35.7503188,"lon":139.6013383,"tags":{"bus":"yes","highway":"bus_stop","name":"石神井幼稚園入口","network":"西武バス","network:en":"Seibu Bus","network:ja":"西武バス","network:wikidata":"Q11628880","network:wikipedia":"ja:西武バス","operator":"西武バス","public_transport":"platform"}},{"type":"node","id":6799475066,"lat":35.7504868,"lon":139.6001828,"tags":{"bus":"yes","highway":"bus_stop","name":"石神井幼稚園入口","network":"西武バス","network:en":"Seibu Bus","network:ja":"西武バス","network:wikidata":"Q11628880","network:wikipedia":"ja:西武バス","operator":"西武バス","public_transport":"platform"}},{"type":"node","id":6799475067,"lat":35.7506031,"lon":139.5983904,"tags":{"bus":"yes","highway":"bus_stop","name":"下屋敷","network":"西武バス","network:en":"Seibu Bus","network:ja":"西武バス","network:wikidata":"Q11628880","network:wikipedia":"ja:西武バス","operator":"西武バス","public_transport":"platform"}},{"type":"node","id":6799475068,"lat":35.7505529,"lon":139.5984222,"tags":{"bus":"yes","highway":"bus_stop","name":"下屋敷","network":"西武バス","network:en":"Seibu Bus","network:ja":"西武バス","network:wikidata":"Q11628880","network:wikipedia":"ja:西武バス","operator":"西武バス","public_transport":"platform"}},{"type":"node","id":6799475069,"lat":35.7506189,"lon":139.5942675,"tags":{"bus":"yes","highway":"bus_stop","name":"東大泉二丁目","network":"西武バス","network:en":"Seibu Bus","network:ja":"西武バス","network:wikidata":"Q11628880","network:wikipedia":"ja:西武バス","operator":"西武バス","public_transport":"platform"}},{"type":"node","id":6799475070,"lat":35.7506936,"lon":139.5950673,"tags":{"bus":"yes","highway":"bus_stop","name":"東大泉二丁目","network":"西武バス","network:en":"Seibu Bus","network:ja":"西武バス","network:wikidata":"Q11628880","network:wikipedia":"ja:西武バス","operator":"西武バス","public_transport":"platform"}},{"type":"node","id":6799475071,"lat":35.7509435,"lon":139.5891378,"tags":{"bus":"yes","highway":"bus_stop","name":"妙延寺前","network":"西武バス","network:en":"Seibu Bus","network:ja":"西武バス","network:wikidata":"Q11628880","network:wikipedia":"ja:西武バス","operator":"西武バス","public_transport":"platform"}},{"type":"node","id":6799475072,"lat":35.7508257,"lon":139.5894633,"tags":{"bus":"yes","highway":"bus_stop","name":"妙延寺前","network":"西武バス","network:en":"Seibu Bus","network:ja":"西武バス","network:wikidata":"Q11628880","network:wikipedia":"ja:西武バス","operator":"西武バス","public_transport":"platform"}},{"type":"node","id":6799475073,"lat":35.750033,"lon":139.5860571,"tags":{"bus":"yes","highway":"bus_stop","name":"大泉学園駅北口降車場","network":"西武バス","network:en":"Seibu Bus","network:ja":"西武バス","network:wikidata":"Q11628880","network:wikipedia":"ja:西武バス","operator":"西武バス","public_transport":"platform","shelter":"no","source":"survey;Bing"}},{"type":"node","id":6901772694,"lat":35.7608858,"lon":139.5762103,"tags":{"bus":"yes","highway":"bus_stop","public_transport":"platform"}},{"type":"node","id":7108157454,"lat":35.7222012,"lon":139.5686428,"tags":{"bus":"yes","highway":"bus_stop","name":"北裏","name:en":"Kitaura","network":"関東バス","network:en":"Kanto Bus","network:ja":"関東バス","network:wikidata":"Q11655856","operator":"関東バス","public_transport":"platform"}},{"type":"node","id":7362429353,"lat":35.7140757,"lon":139.5830275,"tags":{"bus":"yes","highway":"bus_stop","name":"立野町","network":"西武バス","network:en":"Seibu Bus","network:ja":"西武バス","network:wikidata":"Q11628880","operator":"西武バス","public_transport":"platform","shelter":"yes"}},{"type":"node","id":7363238724,"lat":35.7157472,"lon":139.5832206,"tags":{"bus":"yes","highway":"bus_stop","name":"武蔵野寮前","network":"西武バス","network:en":"Seibu Bus","network:ja":"西武バス","network:wikidata":"Q11628880","network:wikipedia":"ja:西武バス","operator":"西武バス","public_transport":"platform","shelter":"yes"}},{"type":"node","id":7363257956,"lat":35.7171905,"lon":139.5829839,"tags":{"bus":"yes","highway":"bus_stop","name":"関町南二丁目","public_transport":"platform","shelter":"yes"}},{"type":"node","id":7365334531,"lat":35.722419,"lon":139.5819674,"tags":{"bus":"yes","covered":"yes","highway":"bus_stop","name":"吉祥寺通り入口","public_transport":"platform"}},{"type":"node","id":7533477172,"lat":35.7409798,"lon":139.6165113,"tags":{"bus":"yes","highway":"bus_stop","name":"練馬高野台駅","network":"西武バス","network:en":"Seibu Bus","network:ja":"西武バス","network:wikidata":"Q11628880","network:wikipedia":"ja:西武バス","operator":"西武バス","public_transport":"platform"}},{"type":"node","id":8011463669,"lat":35.722973,"lon":139.5667223,"tags":{"bus":"yes","highway":"bus_stop","name":"三ッ塚","operator":"西武バス;関東バス","public_transport":"platform"}},{"type":"node","id":8013676982,"lat":35.7239245,"lon":139.578333,"tags":{"bus":"yes","highway":"bus_stop","name":"関町三丁目","network":"関東バス","network:en":"Kanto Bus","network:ja":"関東バス","network:wikidata":"Q11655856","operator":"関東バス","public_transport":"platform"}},{"type":"node","id":8013676983,"lat":35.7263429,"lon":139.5783018,"tags":{"bus":"yes","highway":"bus_stop","name":"武蔵関駅入口","network":"西武バス","network:en":"Seibu Bus","network:ja":"西武バス","network:wikidata":"Q11628880","operator":"西武バス","public_transport":"platform"}},{"type":"node","id":8013676984,"lat":35.7272781,"lon":139.5770122,"tags":{"bench":"no","bus":"yes","departures_board":"timetable","highway":"bus_stop","name":"武蔵関駅","network":"関東バス","network:en":"Kanto Bus","network:ja":"関東バス","network:wikidata":"Q11655856","operator":"関東バス","public_transport":"platform","shelter":"no"}},{"type":"node","id":8013689039,"lat":35.72599,"lon":139.5911578,"tags":{"bus":"yes","highway":"bus_stop","name":"上石神井駅","network":"関東バス","network:en":"Kanto Bus","network:ja":"関東バス","network:wikidata":"Q11655856","operator":"関東バス","public_transport":"platform"}},{"type":"node","id":8013689040,"lat":35.7259875,"lon":139.5911347,"tags":{"bus":"yes","highway":"bus_stop","name":"上石神井駅","network":"西武バス","network:en":"Seibu Bus","network:ja":"西武バス","network:wikidata":"Q11628880","operator":"西武バス","public_transport":"platform"}},{"type":"node","id":8013689041,"lat":35.7266341,"lon":139.5914505,"tags":{"bus":"yes","highway":"bus_stop","name":"上石神井駅","network":"西武バス","network:en":"Seibu Bus","network:ja":"西武バス","network:wikidata":"Q11628880","operator":"西武バス","public_transport":"platform"}},{"type":"node","id":8013689042,"lat":35.7265403,"lon":139.5912241,"tags":{"bus":"yes","highway":"bus_stop","name":"上石神井駅","operator":"西武バス","public_transport":"platform"}},{"type":"node","id":8042211112,"lat":35.7230951,"lon":139.5917534,"tags":{"bus":"yes","highway":"bus_stop","name":"立野橋","public_transport":"platform"}},{"type":"node","id":8042211113,"lat":35.7236479,"lon":139.5914434,"tags":{"bus":"yes","highway":"bus_stop","name":"立野橋","public_transport":"platform"}},{"type":"node","id":8042211117,"lat":35.7262261,"lon":139.6029305,"tags":{"bus":"yes","highway":"bus_stop","name":"上井草駅入口","public_transport":"platform"}},{"type":"node","id":8042211118,"lat":35.7270955,"lon":139.5995047,"tags":{"bus":"yes","highway":"bus_stop","name":"井草高校","public_transport":"platform"}},{"type":"node","id":8042211119,"lat":35.7277984,"lon":139.599435,"tags":{"bus":"yes","highway":"bus_stop","name":"井草高校","public_transport":"platform"}},{"type":"node","id":8042218143,"lat":35.7297942,"lon":139.5776616,"tags":{"bus":"yes","highway":"bus_stop","name":"関町北四丁目","network":"西武バス","network:en":"Seibu Bus","network:ja":"西武バス","network:wikidata":"Q11628880","operator":"西武バス","public_transport":"platform"}},{"type":"node","id":8042218144,"lat":35.7304427,"lon":139.5774482,"tags":{"bus":"yes","highway":"bus_stop","name":"関町北四丁目","network":"西武バス","network:en":"Seibu Bus","network:ja":"西武バス","network:wikidata":"Q11628880","operator":"西武バス","public_transport":"platform"}},{"type":"node","id":8042218145,"lat":35.7330917,"lon":139.5769336,"tags":{"bus":"yes","highway":"bus_stop","name":"関町北小学校","network":"西武バス","network:en":"Seibu Bus","network:ja":"西武バス","network:wikidata":"Q11628880","operator":"西武バス","public_transport":"platform"}},{"type":"node","id":8042218146,"lat":35.7338214,"lon":139.5766646,"tags":{"bus":"yes","highway":"bus_stop","name":"関町北小学校","network":"西武バス","network:en":"Seibu Bus","network:ja":"西武バス","network:wikidata":"Q11628880","operator":"西武バス","public_transport":"platform"}},{"type":"node","id":8042218147,"lat":35.7361513,"lon":139.5769548,"tags":{"bus":"yes","highway":"bus_stop","name":"小関","network":"西武バス","network:en":"Seibu Bus","network:ja":"西武バス","network:wikidata":"Q11628880","operator":"西武バス","public_transport":"platform"}},{"type":"node","id":8042218148,"lat":35.7363553,"lon":139.5774149,"tags":{"bus":"yes","highway":"bus_stop","name":"小関","network":"西武バス","network:en":"Seibu Bus","network:ja":"西武バス","network:wikidata":"Q11628880","operator":"西武バス","public_transport":"platform"}},{"type":"node","id":8042218149,"lat":35.7372344,"lon":139.5807878,"tags":{"bus":"yes","highway":"bus_stop","name":"西村","public_transport":"platform"}},{"type":"node","id":8042218150,"lat":35.7377888,"lon":139.5829361,"tags":{"bus":"yes","highway":"bus_stop","name":"西武車庫前","note":"降車専用","public_transport":"platform"}},{"type":"node","id":8042218151,"lat":35.7379382,"lon":139.5838209,"tags":{"bus":"yes","highway":"bus_stop","name":"西武車庫前","note":"降車専用","public_transport":"platform"}},{"type":"node","id":8042218152,"lat":35.7379784,"lon":139.5836085,"tags":{"bus":"yes","highway":"bus_stop","name":"西武車庫前","public_transport":"platform"}},{"type":"node","id":8042218153,"lat":35.7389189,"lon":139.587543,"tags":{"bus":"yes","highway":"bus_stop","name":"富士街道","public_transport":"platform"}},{"type":"node","id":8042218154,"lat":35.739374,"lon":139.5890155,"tags":{"bus":"yes","highway":"bus_stop","name":"富士街道","public_transport":"platform"}},{"type":"node","id":8042218155,"lat":35.7385728,"lon":139.5885166,"tags":{"bus":"yes","highway":"bus_stop","name":"富士街道","public_transport":"platform"}},{"type":"node","id":8042218156,"lat":35.7398529,"lon":139.5879828,"tags":{"bus":"yes","highway":"bus_stop","name":"富士街道","public_transport":"platform"}},{"type":"node","id":8042262513,"lat":35.7451,"lon":139.5862353,"tags":{"bus":"yes","highway":"bus_stop","name":"学芸大附属前","public_transport":"platform"}},{"type":"node","id":8042262514,"lat":35.7457308,"lon":139.5863261,"tags":{"bus":"yes","highway":"bus_stop","name":"学芸大附属前","public_transport":"platform"}},{"type":"node","id":8042262515,"lat":35.7375315,"lon":139.5887258,"tags":{"bus":"yes","highway":"bus_stop","name":"庚申塚","public_transport":"platform"}},{"type":"node","id":8042262516,"lat":35.7369466,"lon":139.5891145,"tags":{"bus":"yes","highway":"bus_stop","name":"庚申塚","public_transport":"platform"}},{"type":"node","id":8042262517,"lat":35.7358263,"lon":139.5894435,"tags":{"bus":"yes","highway":"bus_stop","name":"上石神井北小学校","public_transport":"platform"}},{"type":"node","id":8042262518,"lat":35.7346657,"lon":139.5896488,"tags":{"bus":"yes","highway":"bus_stop","name":"上石神井北小学校","public_transport":"platform"}},{"type":"node","id":8042262519,"lat":35.7331545,"lon":139.590392,"tags":{"bus":"yes","highway":"bus_stop","name":"あたご橋","public_transport":"platform"}},{"type":"node","id":8042262520,"lat":35.7330137,"lon":139.5903425,"tags":{"bus":"yes","highway":"bus_stop","name":"あたご橋","public_transport":"platform"}},{"type":"node","id":8042262521,"lat":35.7307407,"lon":139.5913757,"tags":{"bus":"yes","highway":"bus_stop","name":"早稲田高等学院","public_transport":"platform"}},{"type":"node","id":8042262522,"lat":35.730523,"lon":139.5914133,"tags":{"bus":"yes","highway":"bus_stop","name":"早稲田高等学院","public_transport":"platform"}},{"type":"node","id":8042262523,"lat":35.7282259,"lon":139.5914079,"tags":{"bus":"yes","highway":"bus_stop","name":"上石神井中学校入口","public_transport":"platform"}},{"type":"node","id":8042272355,"lat":35.7318245,"lon":139.5997321,"tags":{"bus":"yes","highway":"bus_stop","name":"井草通り","public_transport":"platform"}},{"type":"node","id":8042272356,"lat":35.7325715,"lon":139.5996967,"tags":{"bus":"yes","highway":"bus_stop","name":"井草通り","public_transport":"platform"}},{"type":"node","id":8042272357,"lat":35.7349445,"lon":139.5999444,"tags":{"bus":"yes","highway":"bus_stop","name":"JA東京あおば","public_transport":"platform"}},{"type":"node","id":8042272358,"lat":35.7351513,"lon":139.6000825,"tags":{"bus":"yes","highway":"bus_stop","name":"JA東京あおば","public_transport":"platform"}},{"type":"node","id":8042272360,"lat":35.7379171,"lon":139.605544,"tags":{"bus":"yes","highway":"bus_stop","name":"禅定院前","public_transport":"platform"}},{"type":"node","id":8042272361,"lat":35.7375007,"lon":139.6053839,"tags":{"bus":"yes","highway":"bus_stop","name":"禅定院前","public_transport":"platform"}},{"type":"node","id":8042272362,"lat":35.7380532,"lon":139.5987442,"tags":{"bus":"yes","highway":"bus_stop","name":"三宝寺池","public_transport":"platform"}},{"type":"node","id":8042272363,"lat":35.7380615,"lon":139.5988064,"tags":{"bus":"yes","highway":"bus_stop","name":"三宝寺池","public_transport":"platform"}},{"type":"node","id":8042272364,"lat":35.7406873,"lon":139.597193,"tags":{"bus":"yes","highway":"bus_stop","name":"石神井町六丁目","public_transport":"platform"}},{"type":"node","id":8042272365,"lat":35.7402628,"lon":139.5974371,"tags":{"bus":"yes","highway":"bus_stop","name":"石神井町六丁目","public_transport":"platform"}},{"type":"node","id":8042272366,"lat":35.7416268,"lon":139.5961641,"tags":{"bus":"yes","highway":"bus_stop","name":"石神井中学校","public_transport":"platform"}},{"type":"node","id":8042272367,"lat":35.7413906,"lon":139.5956842,"tags":{"bus":"yes","highway":"bus_stop","name":"石神井中学校","public_transport":"platform"}},{"type":"node","id":8042272368,"lat":35.7408985,"lon":139.594142,"tags":{"bus":"yes","highway":"bus_stop","name":"石神井郵便局","public_transport":"platform"}},{"type":"node","id":8042272369,"lat":35.7405889,"lon":139.593287,"tags":{"bus":"yes","highway":"bus_stop","name":"石神井郵便局","public_transport":"platform"}},{"type":"node","id":8042272370,"lat":35.7399982,"lon":139.5913813,"tags":{"bus":"yes","highway":"bus_stop","name":"石神井団地入口","public_transport":"platform"}},{"type":"node","id":8042272371,"lat":35.7404143,"lon":139.5925754,"tags":{"bus":"yes","highway":"bus_stop","name":"石神井団地入口","public_transport":"platform"}},{"type":"node","id":8042295295,"lat":35.7278179,"lon":139.5781565,"tags":{"bus":"yes","highway":"bus_stop","name":"武蔵関駅入口","network":"西武バス","network:en":"Seibu Bus","network:ja":"西武バス","network:wikidata":"Q11628880","operator":"西武バス","public_transport":"platform"}},{"type":"node","id":8042295296,"lat":35.724026,"lon":139.5784346,"tags":{"bus":"yes","highway":"bus_stop","name":"関町北一丁目","network":"西武バス","network:en":"Seibu Bus","network:ja":"西武バス","network:wikidata":"Q11628880","operator":"西武バス","public_transport":"platform"}},{"type":"node","id":8042612489,"lat":35.726492,"lon":139.5731089,"tags":{"bus":"yes","departures_board":"timetable","highway":"bus_stop","name":"関町北二丁目","network":"関東バス","network:en":"Kanto Bus","network:ja":"関東バス","network:wikidata":"Q11655856","operator":"関東バス","public_transport":"platform","shelter":"no"}},{"type":"node","id":8042612490,"lat":35.7246024,"lon":139.5730843,"tags":{"bus":"yes","highway":"bus_stop","name":"関町北三丁目","network":"関東バス","network:en":"Kanto Bus","network:ja":"関東バス","network:wikidata":"Q11655856","operator":"関東バス","public_transport":"platform"}},{"type":"node","id":8042612491,"lat":35.7245345,"lon":139.573015,"tags":{"bus":"yes","highway":"bus_stop","name":"関町北三丁目","public_transport":"platform"}},{"type":"node","id":8042612492,"lat":35.7229122,"lon":139.5737181,"tags":{"bus":"yes","highway":"bus_stop","name":"慈雲堂前","operator":"西武バス;関東バス","public_transport":"platform"}},{"type":"node","id":8042612493,"lat":35.7229785,"lon":139.5757522,"tags":{"bus":"yes","highway":"bus_stop","name":"関町郵便局前","operator":"西武バス;関東バス","public_transport":"platform"}},{"type":"node","id":8042612494,"lat":35.7230368,"lon":139.5775143,"tags":{"bus":"yes","highway":"bus_stop","name":"関町南三丁目","network":"西武バス","network:en":"Seibu Bus","network:ja":"西武バス","network:wikidata":"Q11628880","operator":"西武バス","public_transport":"platform"}},{"type":"node","id":8042612495,"lat":35.7233685,"lon":139.5731439,"tags":{"bus":"yes","departures_board":"timetable","highway":"bus_stop","name":"慈雲堂前","network":"関東バス","network:en":"Kanto Bus","network:ja":"関東バス","network:wikidata":"Q11655856","operator":"関東バス","public_transport":"platform","shelter":"no"}},{"type":"node","id":8047409528,"lat":35.7152616,"lon":139.5832441,"tags":{"bus":"yes","highway":"bus_stop","name":"武蔵野寮前","operator":"西武バス","public_transport":"platform"}},{"type":"node","id":8049001363,"lat":35.7205115,"lon":139.582503,"tags":{"bus":"yes","highway":"bus_stop","name":"東京三育小学校入口","public_transport":"platform","shelter":"yes"}},{"type":"node","id":8049707377,"lat":35.7531108,"lon":139.5861281,"tags":{"bus":"yes","highway":"bus_stop","name":"整備工場前","network":"西武バス","network:en":"Seibu Bus","network:ja":"西武バス","network:wikidata":"Q11628880","network:wikipedia":"ja:西武バス","operator":"西武バス","public_transport":"platform"}},{"type":"node","id":8049707378,"lat":35.7391918,"lon":139.6061307,"tags":{"bus":"yes","highway":"bus_stop","name":"石神井公園","operator":"西武バス;関東バス","public_transport":"platform"}},{"type":"node","id":8049984534,"lat":35.7226525,"lon":139.5817924,"tags":{"bus":"yes","covered":"yes","highway":"bus_stop","name":"吉祥寺通り入口","public_transport":"platform"}},{"type":"node","id":8050367636,"lat":35.7249329,"lon":139.5783209,"tags":{"bus":"yes","highway":"bus_stop","name":"関町北一丁目","network":"関東バス","network:en":"Kanto Bus","network:ja":"関東バス","network:wikidata":"Q11655856","operator":"関東バス","public_transport":"platform"}},{"type":"node","id":8244993184,"lat":35.7512227,"lon":139.6185791,"tags":{"bus":"yes","highway":"bus_stop","name":"谷原三丁目","network":"西武バス","network:en":"Seibu Bus","network:ja":"西武バス","network:wikidata":"Q11628880","operator":"西武バス","public_transport":"platform"}},{"type":"node","id":8263114778,"lat":35.7436143,"lon":139.6027475,"tags":{"bus":"yes","highway":"bus_stop","name":"石神井庁舎","network":"西武バス","network:en":"Seibu Bus","network:ja":"西武バス","network:wikidata":"Q11628880","network:wikipedia":"ja:西武バス","operator":"西武バス","public_transport":"platform","shelter":"yes"}},{"type":"node","id":8263114779,"lat":35.7436811,"lon":139.6027519,"tags":{"bus":"yes","highway":"bus_stop","name":"石神井庁舎","network":"西武バス","network:en":"Seibu Bus","network:ja":"西武バス","network:wikidata":"Q11628880","network:wikipedia":"ja:西武バス","operator":"西武バス","public_transport":"platform"}},{"type":"node","id":8263114780,"lat":35.7425973,"lon":139.5993584,"tags":{"bus":"yes","highway":"bus_stop","name":"石神井警察署","network":"西武バス","network:en":"Seibu Bus","network:ja":"西武バス","network:wikidata":"Q11628880","operator":"西武バス","public_transport":"platform"}},{"type":"node","id":8263114781,"lat":35.7425035,"lon":139.5988822,"tags":{"bus":"yes","highway":"bus_stop","name":"石神井警察署","network":"西武バス","network:en":"Seibu Bus","network:ja":"西武バス","network:wikidata":"Q11628880","operator":"西武バス","public_transport":"platform"}},{"type":"node","id":8263135635,"lat":35.7526473,"lon":139.6143725,"tags":{"bus":"yes","highway":"bus_stop","name":"谷原中学校","network":"西武バス","network:en":"Seibu Bus","network:ja":"西武バス","network:wikidata":"Q11628880","operator":"西武バス","public_transport":"platform"}},{"type":"node","id":8263135636,"lat":35.752655,"lon":139.614136,"tags":{"bus":"yes","highway":"bus_stop","name":"谷原中学校","operator":"西武バス","public_transport":"platform"}},{"type":"node","id":8263135637,"lat":35.7541403,"lon":139.6088856,"tags":{"bus":"yes","highway":"bus_stop","name":"三軒寺","operator":"西武バス","public_transport":"platform"}},{"type":"node","id":8263135638,"lat":35.7542374,"lon":139.6087415,"tags":{"bus":"yes","highway":"bus_stop","name":"三軒寺","operator":"西武バス","public_transport":"platform"}},{"type":"node","id":8263135639,"lat":35.7526021,"lon":139.6075382,"tags":{"bus":"yes","highway":"bus_stop","name":"谷原五丁目","operator":"西武バス","public_transport":"platform"}},{"type":"node","id":8263135640,"lat":35.752314,"lon":139.6074495,"tags":{"bus":"yes","highway":"bus_stop","name":"谷原五丁目","operator":"西武バス","public_transport":"platform"}},{"type":"node","id":8263135641,"lat":35.7509762,"lon":139.6074166,"tags":{"bus":"yes","highway":"bus_stop","name":"三原台一丁目","operator":"西武バス","public_transport":"platform"}},{"type":"node","id":8263135642,"lat":35.7505196,"lon":139.6074599,"tags":{"bus":"yes","highway":"bus_stop","name":"三原台一丁目","network":"西武バス","network:en":"Seibu Bus","network:ja":"西武バス","network:wikidata":"Q11628880","operator":"西武バス","public_transport":"platform"}},{"type":"node","id":8263264231,"lat":35.7210398,"lon":139.5910776,"tags":{"highway":"bus_stop","name":"青梅街道営業所","operator":"西武バス"}},{"type":"node","id":9048087238,"lat":35.7696015,"lon":139.6017983,"tags":{"bus":"yes","highway":"bus_stop","name":"北大泉","public_transport":"platform"}},{"type":"node","id":9048087239,"lat":35.7668458,"lon":139.601564,"tags":{"bus":"yes","highway":"bus_stop","name":"もみじ山","public_transport":"platform"}},{"type":"node","id":9048087240,"lat":35.7651045,"lon":139.6003531,"tags":{"bus":"yes","highway":"bus_stop","name":"大泉第一小学校","public_transport":"platform"}},{"type":"node","id":9048087241,"lat":35.7625273,"lon":139.5996147,"tags":{"bus":"yes","highway":"bus_stop","name":"大泉町四丁目","public_transport":"platform"}},{"type":"node","id":9048087242,"lat":35.7579166,"lon":139.5976053,"tags":{"bus":"yes","highway":"bus_stop","name":"大泉北中学校入口","public_transport":"platform"}},{"type":"node","id":9048087243,"lat":35.7551431,"lon":139.59917,"tags":{"bus":"yes","highway":"bus_stop","name":"三原台中学校","public_transport":"platform"}},{"type":"node","id":9048087244,"lat":35.7551947,"lon":139.595986,"tags":{"bus":"yes","highway":"bus_stop","name":"びくに公園入口","public_transport":"platform"}},{"type":"node","id":9048087245,"lat":35.7572066,"lon":139.5951403,"tags":{"bus":"yes","highway":"bus_stop","name":"大泉町六丁目","public_transport":"platform"}},{"type":"node","id":9048087246,"lat":35.7576883,"lon":139.5941994,"tags":{"bus":"yes","highway":"bus_stop","name":"放射七号","public_transport":"platform"}},{"type":"node","id":9048087247,"lat":35.7576239,"lon":139.5882442,"tags":{"bus":"yes","highway":"bus_stop","name":"北園","public_transport":"platform"}},{"type":"node","id":9048087248,"lat":35.7616689,"lon":139.5882662,"tags":{"bus":"yes","highway":"bus_stop","name":"住宅前","public_transport":"platform"}},{"type":"node","id":9048087249,"lat":35.7640056,"lon":139.5909602,"tags":{"bus":"yes","highway":"bus_stop","name":"大泉学園幼稚園","public_transport":"platform"}},{"type":"node","id":9048087250,"lat":35.7635684,"lon":139.5939886,"tags":{"bus":"yes","highway":"bus_stop","name":"大泉学園小学校入口","public_transport":"platform"}},{"type":"node","id":9048087251,"lat":35.7618147,"lon":139.5976838,"tags":{"bus":"yes","highway":"bus_stop","name":"大泉桜高校","public_transport":"platform"}},{"type":"node","id":9048087252,"lat":35.7658347,"lon":139.5943168,"tags":{"bus":"yes","highway":"bus_stop","name":"大泉学園小学校","public_transport":"platform"}},{"type":"node","id":9048087253,"lat":35.7672719,"lon":139.5947441,"tags":{"bus":"yes","highway":"bus_stop","name":"大泉学園町四丁目","public_transport":"platform"}},{"type":"node","id":9048087254,"lat":35.7706034,"lon":139.5946884,"tags":{"bus":"yes","highway":"bus_stop","name":"大泉学園町八丁目","public_transport":"platform"}},{"type":"node","id":9048087255,"lat":35.7736483,"lon":139.5987572,"tags":{"bus":"yes","highway":"bus_stop","name":"大泉中央公園","public_transport":"platform"}},{"type":"node","id":9141222214,"lat":35.7331697,"lon":139.676357,"tags":{"bus":"yes","highway":"bus_stop","name":"練馬総合病院入口","network":"国際興業バス","public_transport":"platform","route_ref":"池07"}},{"type":"node","id":9141222215,"lat":35.7329207,"lon":139.6764829,"tags":{"bus":"yes","highway":"bus_stop","public_transport":"platform"}},{"type":"node","id":9220115734,"lat":35.7516092,"lon":139.5857014,"tags":{"bus":"yes","highway":"bus_stop","name":"大泉学園駅北口","network":"西武バス","network:en":"Seibu Bus","network:ja":"西武バス","network:wikidata":"Q11628880","network:wikipedia":"ja:西武バス","operator":"西武バス","public_transport":"platform","ref":"4","shelter":"no"}},{"type":"node","id":9582266291,"lat":35.765458,"lon":139.6679703,"tags":{"bus":"yes","departures_board":"timetable","highway":"bus_stop","name":"北町一丁目中央","public_transport":"platform"}},{"type":"node","id":9631544927,"lat":35.7315801,"lon":139.5800347,"tags":{"bus":"yes","highway":"bus_stop","name":"石神井台七丁目","network":"みどりバス","public_transport":"platform"}},{"type":"node","id":9778932879,"lat":35.7335135,"lon":139.6105097,"tags":{"bus":"yes","highway":"bus_stop","name":"下石神井１丁目","public_transport":"platform"}},{"type":"node","id":9778932880,"lat":35.7321925,"lon":139.6123481,"tags":{"bus":"yes","highway":"bus_stop","name":"喜楽沼","public_transport":"platform"}},{"type":"node","id":9778932881,"lat":35.7334641,"lon":139.6106599,"tags":{"bus":"yes","highway":"bus_stop","name":"下石神井１丁目","public_transport":"platform"}},{"type":"node","id":9778932882,"lat":35.7346307,"lon":139.6087189,"tags":{"bus":"yes","highway":"bus_stop","name":"下石神井坂下","public_transport":"platform"}},{"type":"node","id":9778932884,"lat":35.7348842,"lon":139.6079637,"tags":{"bus":"yes","highway":"bus_stop","name":"下石神井坂下","public_transport":"platform"}},{"type":"node","id":9778932885,"lat":35.7324687,"lon":139.6121195,"tags":{"bus":"yes","highway":"bus_stop","name":"喜楽沼","public_transport":"platform"}},{"type":"node","id":9778981688,"lat":35.7389859,"lon":139.6059982,"tags":{"bus":"yes","highway":"bus_stop","name":"石神井公園","public_transport":"platform"}},{"type":"node","id":9778993977,"lat":35.7444358,"lon":139.6065308,"tags":{"bus":"yes","highway":"bus_stop","local_ref":"3","name":"石神井公園駅北口","public_transport":"platform"}},{"type":"node","id":9779011679,"lat":35.7303422,"lon":139.6163279,"tags":{"bus":"yes","highway":"bus_stop","name":"八成橋","operator":"西武バス","public_transport":"platform"}},{"type":"node","id":9779011680,"lat":35.7303454,"lon":139.6163373,"tags":{"bus":"yes","highway":"bus_stop","name":"八成橋東","operator":"関東バス","public_transport":"platform"}},{"type":"node","id":9779011681,"lat":35.7301409,"lon":139.6157861,"tags":{"bus":"yes","highway":"bus_stop","name":"八成橋","public_transport":"platform"}},{"type":"node","id":9785589232,"lat":35.7412908,"lon":139.6068791,"tags":{"bus":"yes","highway":"bus_stop","name":"石神井公園前","network":"関東バス","network:en":"Kanto Bus","network:ja":"関東バス","network:wikidata":"Q11655856","operator":"関東バス","public_transport":"platform"}},{"type":"node","id":10607682413,"lat":35.7271361,"lon":139.5761155,"tags":{"bus":"yes","departures_board":"timetable","highway":"bus_stop","name":"武蔵関駅南口","network":"みどりバス","operator":"練馬区","public_transport":"platform","shelter":"no"}},{"type":"node","id":10651025713,"lat":35.7230994,"lon":139.5749126,"tags":{"bus":"yes","highway":"bus_stop","name":"関町郵便局","network":"関東バス","network:en":"Kanto Bus","network:ja":"関東バス","network:wikidata":"Q11655856","operator":"関東バス","public_transport":"platform"}},{"type":"node","id":10651025714,"lat":35.7231963,"lon":139.5772892,"tags":{"bus":"yes","highway":"bus_stop","name":"関町三丁目","network":"関東バス","network:en":"Kanto Bus","network:ja":"関東バス","network:wikidata":"Q11655856","public_transport":"platform"}},{"type":"node","id":10651025715,"lat":35.7218383,"lon":139.5878494,"tags":{"bus":"yes","highway":"bus_stop","name":"水道端","network":"関東バス","network:en":"Kanto Bus","network:ja":"関東バス","network:wikidata":"Q11655856","public_transport":"platform"}},{"type":"node","id":10651066637,"lat":35.723922,"lon":139.5783466,"tags":{"bus":"yes","highway":"bus_stop","name":"関町北一丁目","network":"西武バス","network:en":"Seibu Bus","network:ja":"西武バス","network:wikidata":"Q11628880","operator":"西武バス","public_transport":"platform"}},{"type":"node","id":10731921239,"lat":35.7772748,"lon":139.5893134,"tags":{"bus":"yes","highway":"bus_stop","name":"大泉桜学園","public_transport":"platform"}},{"type":"node","id":10731921241,"lat":35.7758839,"lon":139.5925674,"tags":{"bus":"yes","highway":"bus_stop","name":"大泉特別支援学校","public_transport":"platform"}},{"type":"node","id":11438722047,"lat":35.7609916,"lon":139.5738095,"tags":{"bus":"yes","highway":"bus_stop","name":"四面塔稲荷","public_transport":"platform"}}]}